STRONG GROUND MOTION RECORDS OF TURKIYE
PLACE                   : BITLIS DSI 173. SB. MUD.
EARTHQUAKE DATE         : 23/10/2011
EPICENTER COORDINATES   : 
EARTHQUAKE DEPTH (km)   : 
EARTHQUAKE MAGNITUDE    : 
STATION ID              : 1302
STATION COORDINATES     : 38.47440N-42.15912E
STATION ALTITUDE (m)    : 1794
RECORDER TYPE           : CMG-5TD
RECORDER SERIAL NO      : 5J60
RECORD TIME             : 23/10/2011 10:41:18 (GMT)
NUMBER OF DATA          : 19107
SAMPLING INTERVAL (sec) : 0.01000000
RAW PGA VALUES (cm/s^2) : (N-S)  89.668149 (E-W) 102.243526 (U-D)  35.511623
Copyright EARTHQUAKE RESEARCH DEPARTMENT 
GENERAL DIRECTORATE OF DISASTER AFFAIRS 
       N-S           E-W           U-D
[...]
   -14.339453      26.918155      -4.382331  
   -15.502761      26.557671      -3.484346  
   -16.864414      24.855055      -2.823571  
   -17.416946      23.020208      -2.422021  
   -16.949419      20.714686      -2.493028  
   -15.451129      18.077959      -3.084966  
   -13.542296      15.884518      -3.513493  
   -12.411731      14.421804      -4.047757  
   -11.678170      12.939570      -5.316284  
   -10.993408      10.808150      -6.668532  
    -8.984144       7.921447      -7.315974  
    -5.687527       4.759264      -7.311323  
    -2.063800       2.101129      -6.737679  
     1.226205      -0.102702      -5.904811  
     4.946272      -2.359110      -4.523726  
     8.620059      -4.386005      -3.059230  
    11.455759      -5.998895      -1.930548  
    13.711853      -7.408717      -0.759075  
    15.562126      -8.214690       0.512863  
    17.243964      -8.630269       1.271933  
    18.550206      -8.685680       1.713173  
    19.600804      -8.384070       1.815189  
    20.793392      -7.500019       1.499840  
    21.269419      -6.565279       1.254569  
    20.607955      -6.040768       1.474724  
    19.750979      -5.814088       2.312863  
    18.577282      -5.957337       3.330848  
    16.733305      -6.444698       3.924336  
    14.875161      -6.756383       4.130227  
    13.289032      -6.586688       4.470383  
    11.752017      -6.196295       4.976739  
    10.416181      -6.020933       5.961545  
     9.099234      -6.310894       7.343251  
     7.534514      -6.972358       8.502941  
     5.705020      -7.937636       9.209917  
     4.065369      -8.985401       9.774569  
     2.621230     -10.038832      10.248987  
     1.276264     -10.909345      10.157204  
    -0.337255     -11.237086       9.150693  
    -2.153212     -10.914383       7.905731  
    -3.619075     -10.129819       6.992553  
    -5.104457      -8.687569       6.500460  
    -6.846428      -7.001008       6.448987  
    -8.775410      -5.680914       6.467282  
   -10.775858      -4.696431       6.119375  
   -12.364191      -4.045671       5.324646  
   -13.129550      -4.199309       4.503561  
   -12.955133      -5.087138       3.656429  
   -11.971909      -5.795198       2.666662  
   -10.662519      -6.127662       1.689297  
    -9.117318      -6.420141       0.500150  
    -7.895766      -6.976766      -1.033493  
    -7.225801      -7.523001      -2.754424  
    -6.861225      -7.957471      -4.558765  
    -6.895227      -7.617136      -6.499540  
    -7.758814      -6.071621      -8.628532  
    -8.900083      -3.628202     -10.433493  
    -9.644349      -1.023274     -11.539850  
   -10.053317       1.456666     -11.790083  
   -10.833788       3.992016     -11.405897  
   -12.823532       6.844403     -10.601866  
   -14.876558       9.875300      -9.825121  
   -16.407591      11.799874      -9.279075  
   -16.996959      12.427336      -8.695819  
   -16.681496      11.921715      -7.998455  
   -15.687883      11.031052      -7.580780  
   -14.335360      10.170614      -7.547602  
   -12.750491       9.726069      -7.255199  
   -10.528400       9.466962      -6.698920  
    -8.572972       9.185816      -6.008067  
    -7.402108       9.550707      -4.767137  
    -6.331991      10.177225      -2.635974  
    -4.919965      11.009958      -0.274114  
    -4.194589      12.275272       1.483096  
    -4.402694      13.498713       2.426662  
    -4.631578      14.272888       3.441235  
    -4.391990      14.539866       5.111313  
    -3.989948      14.162066       6.932708  
    -3.489363      13.508158       7.783561  
    -2.412320      12.466376       8.051468  
    -0.155912      10.711811       8.344491  
     3.058219       8.566539       8.177359  
     6.068652       6.561683       7.574569  
     8.305226       5.066226       6.827282  
     9.793126       3.836803       6.166196  
    10.835224       2.925991       5.526196  
    11.528801       2.319623       4.912553  
    11.909119       2.216672       4.175809  
    12.080073       3.027997       3.891158  
    12.299197       4.258364       4.034724  
    12.533433       5.258589       4.100150  
    12.434890       5.386726       4.091468  
    11.949418       4.688426       4.337669  
    11.449463       3.619883       4.634414  
    10.910154       2.351106       4.640925  
    10.285210       0.780089       4.127747  
     9.699306      -0.935121       2.733948  
     9.272707      -2.812155       1.287437  
     9.030601      -4.743341       0.631623  
     8.630763      -6.626357       0.470072  
     7.760250      -7.692696       0.033173  
     6.238977      -7.669399      -0.749773  
     5.098966      -7.762589      -1.330548  
     5.238437      -7.981083      -1.695819  
     6.048503      -8.003437      -2.214579  
     6.922164      -8.091905      -2.594114  
     8.273113      -8.271359      -2.280935  
    10.290877      -8.724089      -1.336439  
    12.146188     -10.034424       0.035034  
    13.278328     -12.270368       1.367747  
    13.828656     -15.458997       1.968677  
    14.034557     -19.157970       1.732398  
    14.462100     -23.078585       0.748832  
    15.066264     -27.408169      -0.734269  
    15.796362     -31.307061      -2.403726  
    16.006985     -33.488854      -4.102951  
    15.596443     -33.745757      -5.331478  
    14.662648     -32.257542      -5.587292  
    12.331625     -29.417118      -4.854269  
     9.203759     -24.148388      -3.368377  
     6.003481     -17.885730      -2.120935  
     3.144798     -12.759934      -1.186052  
     0.828256      -7.929766      -0.386052  
    -1.285218      -2.086465      -0.018300  
    -3.389246       4.312831      -0.431323  
    -5.310043       9.550392      -0.859230  
    -6.766145      14.179697      -1.321866  
    -7.630047      18.202003      -1.464191  
    -9.201064      21.598737      -0.974889  
   -11.637556      24.680007      -1.598145  
   -15.225708      27.896656      -1.578920  
   -18.805989      31.074581      -1.179850  
   -20.615649      35.651938      -0.600005  
   -21.884111      39.911628      -0.349773  
   -22.602560      42.090902      -0.873804  
   -22.038380      44.016106      -1.631013  
   -20.293890      45.392871      -2.917835  
   -17.868731      44.812319      -3.900160  
   -16.315660      43.247914      -4.858610  
   -15.992327      42.367955      -5.514424  
   -15.451129      41.734197      -6.169617  
   -14.715049      40.378526      -5.658920  
   -14.475461      37.907716      -5.499230  
   -14.226428      35.642808      -4.738920  
   -12.274464      32.454179      -2.872563  
    -9.951311      28.326088      -1.597524  
    -7.296324      24.680007       0.086196  
    -3.521791      21.030463       1.409607  
    -0.074370      15.513644       3.014569  
     3.378719       9.414070       4.711933  
     7.407322       4.064113       5.577049  
    11.564062      -1.770688       6.067282  
    15.198494      -8.376199       6.577669  
    17.443254     -14.202184       7.098290  
    19.379477     -18.547194       7.387592  
    21.023849     -22.130308       7.554414  
    21.247381     -24.683604       7.856119  
    21.419594     -25.858246       7.616739  
    21.256196     -25.608898       7.493638  
    20.692330     -25.278953       7.304801  
    20.095407     -24.924451       7.438445  
    19.572154     -24.884153       7.027902  
    18.135571     -25.459038       5.987592  
    16.246573     -27.119782       5.670693  
    14.690354     -31.326266       5.825111  
    13.339720     -36.267885       6.624491  
    12.405296     -41.249487       7.500770  
    12.509505     -46.397322       8.250538  
    14.420227     -51.928623       8.336739  
    17.284263     -56.944542       7.783251  
    20.660847     -61.127414       6.619840  
    24.046561     -65.680528       4.555034  
    28.030458     -68.903789       2.350383  
    31.371466     -70.919979      -0.310393  
    33.288169     -71.486049      -3.324656  
    34.310747     -70.931943      -5.536439  
    34.448958     -67.709627      -7.144191  
    32.865978     -62.314334      -7.282486  
    27.960565     -53.470045      -7.512873  
    21.476264     -43.492043      -7.951633  
    14.795823     -35.339757      -7.606517  
     9.449329     -27.820600      -6.421710  
     2.299471     -18.161209      -6.048997  
    -6.573153      -7.316156      -6.609307  
   -16.395942       2.167244      -5.869462  
   -25.930345      12.365314      -6.034734  
   -33.311920      21.333647      -6.631633  
   -41.860895      28.167727      -8.872563  
   -45.068414      31.245850     -10.427602  
   -49.925972      37.748096     -10.197524  
   -55.375102      44.799411     -12.337990  
   -58.599937      48.677524     -12.079385  
   -65.317528      52.791447     -11.254889  
   -69.031928      60.267786      -9.888997  
   -73.073125      68.958436      -6.405586  
   -76.093947      76.733552      -4.230393  
   -76.931403      86.101723      -3.146052  
   -78.348781      92.741866      -4.199695  
   -78.819772      97.552829      -5.481866  
   -77.068356     100.140442      -7.599385  
   -74.187319      98.208626      -9.078765  
   -69.800121      92.863392      -9.669773  
   -63.506924      85.521801      -9.767447  
   -57.292750      74.109104      -8.313183  
   -51.541066      62.210306      -7.789773  
   -44.642130      53.956014      -6.371788  
   -36.802159      45.721871      -4.780470  
   -28.672226      34.376234      -3.654579  
   -21.504738      22.058708      -1.001555  
   -15.091274      12.111244      -0.893959  
    -8.770057       5.147768      -0.992873  
    -6.957249      -1.478523       0.923716  
    -5.895317      -4.008835       1.875654  
    -4.063934      -3.813954       2.915654  
    -2.166750      -5.429992       4.351313  
     0.867925      -7.172277       4.979220  
     6.527993      -8.386274       5.485576  
    13.920272     -10.397742       6.689297  
    20.859506     -13.830366       6.938600  
    29.320014     -18.773874       7.931468  
    40.037559     -26.738519       9.515034  
    50.742196     -35.578085      10.199065  
    60.409773     -45.802602      10.973018  
    69.231709     -57.860706      11.141080  
    75.826201     -68.538897       8.728987  
    82.828087     -77.901086       6.087127  
    87.451725     -84.724462       2.062941  
    89.668149     -88.245869      -3.140160  
    88.872566     -89.480330      -6.300470  
    85.803889     -86.273755      -8.850548  
    80.178767     -81.479793      -9.528997  
    70.523154     -69.665370      -7.342331  
    60.300841     -53.388189      -5.155354  
    50.353692     -40.530094      -2.778920  
    43.727717     -31.476441       0.653638  
    36.985568     -22.339358       3.604646  
    28.465557     -10.637330       5.516894  
    18.374215       2.291603       7.133638  
     7.340577      12.363740       9.470693  
    -1.349758      20.488321      10.417669  
    -5.778199      28.333644      11.517204  
    -6.698771      29.723003      11.989142  
    -7.155594      33.044806      10.762476  
    -8.211858      40.107454       8.974569  
    -6.164814      44.537155       7.722165  
    -3.560201      45.264734       7.046817  
    -3.672596      47.899886       5.749452  
    -2.022871      50.123237       6.666041  
    -0.569602      52.961771       9.590693  
    -3.238756      55.932535      12.241235  
    -4.437326      55.756229      12.577359  
    -0.408722      49.033600      11.426972  
     2.999975      34.463128      11.349452  
     8.842016      18.431202       8.247747  
    16.631299       2.128519       5.102631  
    22.197547     -13.362209       2.113793  
    28.782594     -32.546873      -2.617679  
    34.696417     -51.825043      -5.912873  
    39.786637     -68.249251     -13.559075  
    43.936766     -78.241106     -17.964346  
    44.587526     -87.600776     -21.024191  
    43.760459     -95.422173     -27.217369  
    38.013183     -98.113680     -27.535819  
    30.053575    -100.777482     -27.355354  
    23.745581    -101.009829     -28.137369  
    11.748554     -94.994000     -26.550393  
    -2.707318     -79.067543     -21.496439  
    -7.695218     -61.944405     -17.182951  
   -11.898238     -47.927095     -18.229152  
   -20.005503     -36.823250     -18.719075  
   -22.224131     -26.970866     -19.380780  
   -23.380513     -16.193817     -20.929928  
   -26.924903      -4.950816     -20.014269  
   -30.195073       5.328167     -18.334269  
   -29.015079      14.032985     -16.711943  
   -30.971451      25.089605     -16.012098  
   -32.929398      35.745758     -16.291788  
   -35.967221      43.361253     -13.356904  
   -42.014219      52.692904      -9.331478  
   -44.679280      62.366148      -8.035044  
   -50.698887      69.984477      -3.716594  
   -57.553117      76.873653       1.441545  
   -61.031077      83.683176       6.709762  
   -64.536113      88.168287      13.333018  
   -68.068854      93.520133      18.029762  
   -66.194653      99.853944      22.444026  
   -64.227577     102.243526      25.336429  
   -57.378384     101.677142      26.661700  
   -45.279037      98.338023      28.418910  
   -33.163948      92.216095      31.983871  
   -21.724491      81.065654      33.925886  
   -13.927022      68.844781      34.129297  
    -6.700345      60.129259      35.511623  
     2.466962      51.235227      35.207437  
    12.051423      40.780567      34.294259  
    19.150908      27.998347      30.528367  
    27.203077      15.531905      25.243716  
    36.656882       3.350071      18.806196  
    42.661377     -12.191030      13.120305  
    44.029956     -23.861575       9.111313  
    42.422104     -34.019347       3.850848  
    41.024560     -42.664347       3.779840  
    40.346410     -48.303636       2.479685  
    38.852213     -53.119006      -0.136439  
    36.575026     -55.173607      -0.348532  
    34.884058     -54.745434      -1.182021  
    35.292081     -51.610012      -0.955974  
    32.633316     -47.465865      -0.694889  
    30.406188     -37.392468       1.068212  
    28.153243     -24.755701       2.999065  
    22.647128     -16.961380       4.402786  
    17.320154     -12.245811       6.539220  
    11.399719      -6.646506       8.382010  
     6.337834      -0.723553       8.684026  
     1.446588      -0.329697       7.199065  
    -2.975241      -6.359064       4.444026  
    -3.088266     -16.367920      -0.137679  
    -0.016755     -29.610111      -5.537059  
     3.232951     -44.000813     -11.876904  
     6.012612     -57.542095     -17.874114  
     7.866033     -67.438556     -23.043106  
     8.529701     -74.189205     -25.038455  
     9.848222     -80.701841     -25.684966  
    12.007977     -84.798133     -26.591323  
    11.524708     -83.720775     -24.494579  
     8.545128     -76.198155     -23.430703  
     2.400532     -62.949037     -21.037214  
    -4.314226     -49.322120     -17.328687  
    -8.812560     -39.319876     -15.481555  
   -13.698138     -29.500864     -13.499540  
   -21.966598     -15.525742     -10.626672  
   -30.685898      -1.323940      -8.894579  
   -38.772384       9.504427      -8.910083  
   -46.737344      17.905746      -8.118145  
   -51.706353      21.079262      -7.386362  
   -56.273321      21.305312      -8.520935  
   -60.506565      20.263215      -8.845897  
   -62.638929      19.054571      -9.329928  
   -61.572275      22.255478     -11.145431  
   -60.721281      25.526279     -12.021090  
   -58.920751      28.409834     -11.372098  
   -53.972521      30.100172      -9.876284  
   -48.734015      31.953594      -7.732098  
   -43.075521      35.961104      -2.154734  
   -37.967670      39.746656       2.062941  
   -32.615824      42.683733       5.100460  
   -27.091449      42.479406       8.677824  
   -21.575260      42.575745      11.078445  
   -16.671736      41.966543      13.039685  
   -12.808106      39.692819      14.235344  
    -8.987922      34.120275      14.469142  
    -4.607335      28.225972      13.450538  
    -0.148670      24.426567      11.530848  
     5.128560      18.428368       8.737669  
    10.740459      12.090465       7.038755  
    16.447752       7.232277       4.828832  
    23.206587       3.727241       3.857049  
    29.081056       0.265023       4.088987  
    34.894762      -2.180285       4.002786  
    39.593644      -1.882453       4.909142  
    42.950394       0.694770       4.392553  
    46.342090       3.545897       3.364026  
    49.321984       6.724137       2.521545  
    51.890707      11.114798       1.248057  
    53.022846      15.821551       0.795034  
    51.869613      19.550118       0.919995  
    48.436674      22.136786       1.969917  
    41.462178      24.100085       3.942941  
    33.303281      25.029472       5.004646  
    26.515167      23.984226       6.307902  
    20.739555      22.240052       7.745111  
    16.047284      20.419372       7.902631  
    13.082502      17.460572       8.052398  
    12.470781      13.074003       8.037514  
    13.635663       7.719953       8.527747  
    16.367784       2.398016       8.458910  
    19.309269      -2.095910       6.260460  
    22.720799      -5.899722       3.351313  
    25.784439      -9.735333       0.124956  
    28.401961     -13.214553      -3.021090  
    29.660348     -15.316692      -6.530238  
    29.246973     -15.664898     -10.111013  
    25.456698     -14.018006     -11.991013  
    18.279450     -10.344535     -12.537369  
    10.369271      -5.337116     -12.565897  
     2.851688      -0.455000     -10.827602  
    -3.971058       2.541895      -8.822331  
   -10.565550       3.813505      -6.270393  
   -16.409795       3.551564      -3.436284  
   -22.737939       2.730795      -1.171168  
   -27.600849       0.082734       1.366196  
   -29.926206      -5.305003       3.328057  
   -29.564148     -11.017963       4.788522  
   -28.221700     -17.326586       5.139840  
   -26.116097     -24.294785       4.269142  
   -23.280081     -30.218998       2.675034  
   -19.094691     -34.389591       1.386041  
   -15.114572     -39.678785      -0.659850  
   -14.250041     -44.780654      -3.260780  
   -14.034380     -45.628814      -5.350083  
   -14.284043     -44.357519      -7.793183  
   -16.575397     -42.283399      -9.976129  
   -19.751118     -37.916980     -10.437524  
   -21.833423     -30.048358      -9.880005  
   -22.744865     -21.782733      -8.560625  
   -23.764294     -15.257504      -6.178300  
   -25.800004      -7.888837      -3.787602  
   -27.323166       0.983472      -1.117835  
   -27.660353       8.221797       1.887437  
   -27.394004      11.446317       4.269452  
