STRONG GROUND MOTION RECORDS OF TURKIYE
PLACE                   : AGRI BAYINDIRLIK VE ISKAN MUD.
EARTHQUAKE DATE         : 23/10/2011
EPICENTER COORDINATES   : 
EARTHQUAKE DEPTH (km)   : 
EARTHQUAKE MAGNITUDE    : 
STATION ID              : 401
STATION COORDINATES     : 39.71991N-43.01585E
STATION ALTITUDE (m)    : 1610
RECORDER TYPE           : CMG-5TD
RECORDER SERIAL NO      : 5D60
RECORD TIME             : 23/10/2011 10:40:43 (GMT)
NUMBER OF DATA          : 22241
SAMPLING INTERVAL (sec) : 0.01000000
RAW PGA VALUES (cm/s^2) : (N-S)  18.459245 (E-W)  15.087845 (U-D)   7.217400
Copyright EARTHQUAKE RESEARCH DEPARTMENT 
GENERAL DIRECTORATE OF DISASTER AFFAIRS 
       N-S           E-W           U-D
[...]
     0.626027      -1.619057       1.209912  
    -0.575417      -0.141512       1.260648  
    -1.710498      -0.099565       1.343328  
    -1.960303      -1.612797       1.576963  
    -2.667771      -1.286610       1.552535  
    -2.984567      -0.271737       1.233714  
    -2.892534      -0.899067       1.285702  
    -3.290719      -2.347187       1.230582  
    -3.492943      -1.691683       0.497106  
    -2.193830      -1.149499      -0.137404  
    -1.224035      -2.368473      -0.305270  
    -2.148126      -2.705930      -0.746859  
    -2.292750      -1.279097      -1.670751  
    -0.551000      -1.056839      -2.014626  
    -0.073302      -2.883110      -2.077263  
    -1.920234      -2.858693      -2.666048  
    -2.735388      -0.994857      -3.301811  
    -1.497005      -1.231515      -3.261723  
    -2.207604      -2.821754      -3.012429  
    -5.217163      -1.957766      -3.028088  
    -5.961570      -0.021305      -2.945408  
    -5.955935       0.061337      -2.660411  
    -8.537257      -0.448917      -2.592137  
   -10.103079       0.859587      -2.783805  
    -9.175857       1.649072      -2.951672  
    -9.769379       1.334781      -3.204724  
   -11.692066       1.975259      -3.462161  
   -10.798026       2.754726      -3.668236  
    -9.593451       2.499913      -3.842366  
   -10.856251       2.149309      -4.124231  
   -11.010267       2.864916      -4.318405  
    -9.836996       2.933785      -4.286460  
   -10.252086       2.238838      -4.301493  
   -10.553229       2.485513      -4.267669  
    -9.361176       2.662693      -3.925046  
    -9.106988       1.853174      -3.736510  
    -9.927777       1.846913      -3.611236  
    -9.241595       1.674741      -3.360689  
    -7.633199       1.041776      -3.185933  
    -8.207939       0.311768      -2.907826  
    -8.163488       0.570965      -2.754366  
    -6.849349       0.646094      -2.550170  
    -5.750582      -0.886546      -2.658532  
    -4.306845      -0.633610      -2.438677  
    -2.747909      -0.800147      -2.293986  
    -1.967190      -0.755069      -2.457468  
    -1.724271      -0.165303      -2.151801  
     0.078209      -0.709365      -1.835485  
     1.615231      -1.508868      -1.630037  
     1.965835      -1.734256      -1.564895  
     3.492840      -1.365496      -1.076328  
     5.354798      -2.162494      -0.728068  
     5.312850      -1.993452      -0.561454  
     5.583316      -1.075621      -0.136151  
     7.399570      -1.594014       0.389997  
     8.194063      -2.672747       0.763938  
     7.880398      -2.791076       1.136627  
     8.448877      -2.794833       1.646490  
     8.917184      -4.177840       1.800576  
     8.416321      -4.200379       1.863839  
     8.355592      -3.428424       2.120023  
     8.609153      -3.942435       2.234022  
     8.016883      -3.793428       2.088079  
     7.677549      -2.830519       2.031079  
     8.170272      -2.672121       1.889520  
     7.766452      -2.980778       1.333306  
     7.254320      -2.131816       0.949343  
     7.743287      -1.786846       0.772081  
     7.621828      -2.527497       0.411294  
     7.246807      -1.962148       0.215241  
     8.311766      -1.106925       0.378723  
     9.081842      -1.770568       0.397514  
     8.497085      -1.832550       0.286647  
     8.443242      -0.814547       0.612358  
     8.728734      -1.110056       0.996321  
     7.449030      -1.882636       1.228703  
     5.948946      -1.239028       1.828136  
     5.372954      -0.820807       2.634271  
     3.915443      -0.924736       3.144134  
     1.871923      -0.351875       3.626437  
     1.305948       0.008746       4.156970  
     0.837016      -0.448917       4.498340  
    -0.830857      -0.303667       4.747007  
    -1.128871       0.495835       5.109674  
    -0.559139      -0.014418       5.246848  
    -1.283512       0.221613       5.149135  
    -2.081762       1.711680       5.188596  
    -1.597803       2.020336       5.223047  
    -1.576517       1.919538       5.073971  
    -2.084892       3.089052       4.894204  
    -1.438153       3.737044       4.745128  
    -0.992386       3.504142       4.478922  
    -1.597177       4.230393       4.325462  
    -1.357389       4.751917       4.212716  
    -0.728807       4.339957       3.992235  
    -1.962181       4.711848       3.621426  
    -2.602659       6.046021       3.207397  
    -2.188195       5.936457       2.823434  
    -2.818656       5.805607       2.436965  
    -3.641949       6.583822       2.109375  
    -3.347067       6.008456       1.876367  
    -3.606889       4.911567       1.598886  
    -4.485903       4.550945       1.376526  
    -4.055787       3.888555       1.231835  
    -4.142186       2.958202       1.044551  
    -5.303562       2.933159       0.824696  
    -5.344257       2.915629       0.534688  
    -5.270379       1.804339       0.263471  
    -6.205741       1.175757       0.011045  
    -6.134368       1.159479      -0.217579  
    -5.944666      -0.184086      -0.624091  
    -6.390434      -1.191446      -1.026219  
    -6.368521      -1.392417      -1.328754  
    -6.209497      -2.200058      -1.599345  
    -6.635230      -2.324022      -1.841123  
    -6.438642      -1.886393      -1.932572  
    -5.724286      -2.219467      -1.946979  
    -5.748077      -2.139955      -2.070999  
    -5.161442      -1.455025      -2.257030  
    -3.910537      -1.933349      -2.323425  
    -3.745878      -2.277692      -2.367897  
    -3.420944      -1.533911      -2.491292  
    -2.894412      -1.883263      -2.354744  
    -3.466021      -2.390386      -2.174350  
    -3.348319      -1.530780      -2.011495  
    -2.989576      -1.982183      -1.726497  
    -3.369605      -2.493063      -1.358820  
    -3.562438      -1.867611      -0.913473  
    -2.945750      -2.551914      -0.709903  
    -2.901925      -3.112255      -0.667937  
    -2.891281      -2.680886      -0.686728  
    -2.026667      -3.221192      -0.981120  
    -2.049206      -4.237944      -1.207239  
    -1.999120      -3.777776      -1.549236  
    -1.266608      -3.686368      -2.039055  
    -1.113219      -4.289908      -2.399842  
    -0.916630      -3.532353      -2.558939  
    -0.174101      -3.377712      -2.957935  
     0.196537      -3.834749      -3.366327  
     0.385613      -3.229331      -3.328118  
     1.379826      -3.397120      -3.369459  
     2.199988      -4.172205      -3.301185  
     2.431637      -3.939304      -2.966078  
     3.266826      -3.991895      -2.845189  
     4.142084      -4.646773      -2.762509  
     4.438219      -4.436410      -2.494424  
     4.823257      -4.031338      -2.320920  
     4.882108      -4.385698      -2.071626  
     4.584721      -4.480236      -1.821079  
     4.731223      -4.723780      -1.603729  
     4.097006      -5.845713      -1.407677  
     3.467171      -6.136213      -1.028098  
     3.230513      -6.421079      -0.635992  
     2.420368      -7.027123      -0.505081  
     1.701630      -6.774813      -0.347863  
     1.583927      -6.696554      -0.266436  
     1.092456      -6.946985      -0.209436  
     0.014349      -6.738501      -0.012757  
    -0.232952      -6.192560       0.185175  
    -0.753850      -6.446122       0.348031  
    -1.275999      -6.385393       0.591688  
    -0.991133      -6.030406       0.778971  
    -1.346746      -6.046058       0.892970  
    -1.709871      -5.376780       1.271296  
    -1.190226      -4.904717       1.586359  
    -1.523926      -5.022420       1.703489  
    -2.097414      -4.262987       1.989113  
    -2.138735      -3.766506       2.396878  
    -2.929472      -4.178466       2.772698  
    -3.187417      -3.707029       3.187980  
    -3.169886      -3.389607       3.589481  
    -3.951232      -3.314478       3.840654  
    -3.680140      -2.607635       4.281617  
    -3.111035      -2.618279       4.522142  
    -3.517986      -2.693408       4.715689  
    -3.548038      -2.108025       5.191728  
    -3.692662      -2.330283       5.384649  
    -4.314984      -2.021000       5.482989  
    -4.327505      -1.423721       5.563164  
    -4.068935      -1.314157       5.309485  
    -4.840890      -1.026787       5.193607  
    -5.275388      -0.631106       5.236200  
    -5.279145      -0.251076       5.234321  
    -6.429251      -0.081409       5.254991  
    -6.563858       0.805118       5.139113  
    -6.446781       1.086227       4.962478  
    -7.365864       1.548899       4.894830  
    -7.780954       2.806065       5.045785  
    -8.244252       3.420248       4.854743  
    -9.135162       4.141490       4.693140  
    -9.313594       5.302240       4.626745  
    -9.269142       5.752390       4.455120  
   -10.267738       6.200662       4.446351  
   -10.441787       7.193623       4.305419  
   -10.036088       7.219918       4.154464  
    -9.955950       7.129763       3.984092  
    -9.334255       7.476610       3.842533  
    -9.646042       7.650034       3.509932  
   -10.088679       7.984986       3.187980  
    -9.584686       8.668663       2.947455  
    -9.929029       8.274234       2.424438  
   -10.096818       8.363137       1.835026  
    -9.448201       9.013006       1.156044  
    -9.602216       8.432006       0.409415  
    -9.233456       8.723758       0.004781  
    -8.689394       9.237143      -0.184381  
    -8.907895       9.315402      -0.521367  
    -8.452736       9.979672      -0.606553  
    -8.204183      10.494934      -0.781309  
    -8.268669      10.389127      -1.257975  
    -7.903665      10.526864      -1.289920  
    -8.057055      10.414170      -1.279271  
    -8.678750       9.749901      -1.412061  
    -8.370094       9.883882      -1.214755  
    -7.712711       9.433105      -1.368215  
    -7.470419       8.276738      -1.829848  
    -6.534432       8.394441      -1.780991  
    -6.133116       8.172183      -2.011495  
    -5.441299       7.402733      -2.410490  
    -4.335644       7.305691      -2.312777  
    -4.263645       6.125533      -2.758751  
    -3.267555       4.679918      -3.058154  
    -2.546938       4.226637      -2.685466  
    -2.946376       3.110965      -2.871497  
    -2.696571       2.576294      -2.853958  
    -2.276472       3.055870      -2.647884  
    -2.452400       2.200647      -2.996770  
    -1.588412       1.718567      -2.780047  
    -0.649921       1.840026      -2.314656  
    -0.798927       0.887135      -2.555181  
     0.328640       0.882752      -2.634103  
     1.139412       0.784458      -2.438677  
     0.862685      -0.236050      -2.860222  
     1.816202      -0.072644      -2.772531  
     2.034078      -0.098939      -2.475006  
     1.835611      -0.207877      -2.581489  
     3.258061       0.472671      -2.156185  
     3.380772       0.068850      -2.116098  
     2.976952      -0.622967      -2.155559  
     3.737011      -0.344362      -1.728377  
     2.838588      -1.111934      -1.596839  
     2.626974      -1.806881      -1.619389  
     3.763306      -1.601527      -1.341282  
     2.927492      -2.633305      -1.236052  
     3.136602      -2.583844      -1.207865  
     4.463888      -2.161241      -0.877770  
     4.373107      -3.146689      -0.845825  
     5.206417      -2.394143      -0.879023  
     6.476730      -1.312905      -0.865869  
     6.339619      -1.989070      -1.107647  
     7.637480      -1.755543      -0.922242  
     8.674892      -2.064825      -0.580872  
     7.841581      -3.447206      -0.616575  
     8.790090      -2.784815      -0.556444  
     9.139442      -2.881232      -0.443697  
     8.263558      -3.928035      -0.383566  
     9.200797      -3.298200      -0.168722  
     9.702286      -3.722055       0.054891  
     9.752999      -4.051998       0.051759  
    10.472363      -2.941335       0.486458  
    10.113620      -3.593083       0.780224  
    10.065412      -4.622356       0.660588  
    11.177953      -4.780127       0.913640  
    11.000773      -5.118210       0.919278  
    10.901226      -4.303682       0.792125  
    12.235400      -3.598717       0.851004  
    12.557830      -4.607330       0.657456  
    12.891530      -5.326694       0.370580  
    13.972141      -5.011776       0.353668  
    13.650337      -5.050593      -0.179370  
    13.821882      -5.109445      -0.522620  
    13.917672      -4.242326      -0.447456  
    12.869617      -4.714389      -1.066306  
    13.761153      -4.920995      -1.343161  
    14.098609      -4.306812      -1.506643  
    14.047271      -4.677451      -2.109208  
    15.623736      -3.894853      -2.362887  
    16.089538      -3.319486      -2.290854  
    15.223046      -4.105841      -2.599653  
    15.824707      -3.858540      -2.426776  
    16.689948      -3.979373      -2.147416  
    17.039925      -5.061237      -2.245129  
    17.915809      -4.308064      -1.720860  
    18.088607      -4.067650      -1.677641  
    18.013477      -4.741311      -1.829848  
    18.459245      -4.062642      -1.388259  
    17.749898      -3.913009      -1.333139  
    17.211471      -4.373176      -1.468434  
    18.290830      -3.899235      -1.174668  
    17.587744      -4.331855      -1.182184  
    17.394286      -4.832092      -1.143350  
    18.120537      -4.471471      -0.843946  
    17.680404      -5.738654      -0.904077  
    17.386773      -6.382888      -0.790705  
    17.126324      -6.107414      -0.472510  
    16.283623      -6.828656      -0.582125  
    15.685718      -7.248755      -0.613443  
    15.059013      -7.553029      -0.501323  
    13.863203      -7.730209      -0.713035  
    13.170761      -7.715183      -0.630981  
    12.979807      -7.221207      -0.492554  
    11.909213      -7.184269      -0.848331  
    11.296908      -6.860586      -0.994274  
    11.325708      -5.508883      -1.060669  
     9.817485      -5.301025      -1.458412  
     8.904036      -4.363159      -1.480335  
     8.742508      -2.442351      -1.307458  
     7.698209      -1.733630      -1.510401  
     6.765978      -1.501355      -1.620015  
     6.407862      -0.641749      -1.621894  
     5.355424      -0.055740      -1.767838  
     5.201408       0.552809      -1.593081  
     5.265894       0.718719      -1.480335  
     4.286082       0.267317      -1.666366  
     4.477036       0.633573      -1.546104  
     4.527748       0.291734      -1.592455  
     3.732628      -0.647384      -1.795398  
     4.143962      -0.248572      -1.570532  
     4.257908      -0.522794      -1.680773  
     4.036902      -1.106925      -1.698937  
     4.877100      -0.986092      -1.348172  
     4.716824      -1.453147      -1.383875  
     4.454497      -1.647857      -1.283029  
     4.977272      -1.281601      -0.819518  
     3.929843      -1.801246      -0.852089  
     3.347590      -2.172511      -0.795716  
     3.668768      -1.674152      -0.448082  
     2.596922      -2.426699      -0.581498  
     1.932027      -2.280822      -0.467499  
     1.615231      -1.007379      -0.267062  
     0.341788      -1.387408      -0.637245  
    -0.115876      -1.439999      -0.535147  
    -0.121510      -1.133221      -0.280842  
    -1.065637      -2.132442      -0.609058  
    -0.608599      -2.247014      -0.583377  
    -0.698129      -2.262040      -0.513851  
    -1.965311      -2.746625      -0.782562  
    -1.860756      -2.196928      -0.828913  
    -1.775610      -1.867611      -0.761892  
    -2.562590      -2.776676      -1.065680  
    -2.364749      -2.367221      -0.835177  
    -2.350350      -1.629075      -0.709277  
    -3.137330      -2.247640      -1.035614  
    -2.881890      -1.661005      -0.829540  
    -3.352075      -1.106299      -0.804485  
    -4.029492      -1.329809      -1.113910  
    -3.923685      -0.304293      -0.763771  
    -4.387609       0.832040      -0.681091  
    -4.574180       0.696807      -1.011186  
    -3.998814       1.248382      -0.872759  
    -3.499204       2.275776      -0.806990  
    -3.477291       2.213169      -0.976736  
    -2.972046       2.524956      -0.964835  
    -2.767318       3.316945      -0.703013  
    -3.219347       2.864916      -0.988637  
    -2.855595       2.293307      -0.875264  
    -3.749009       3.286267      -0.579619  
    -4.636788       3.690714      -0.743727  
    -4.785169       3.118478      -0.556444  
    -6.372904       3.730783      -0.064119  
    -7.089763       4.162151      -0.086042  
    -6.737281       3.231798      -0.130514  
    -8.116532       3.245572       0.225263  
    -9.833865       4.803881       0.039232  
    -9.403123       4.436999      -0.463741  
    -9.807570       4.458912      -0.309655  
   -11.499860       6.396625      -0.464994  
   -10.520047       6.796689      -1.331886  
   -10.270242       5.718582      -1.437742  
   -11.420974       7.266874      -1.380116  
   -11.534920       7.963699      -2.340964  
   -10.116853       6.780411      -2.781926  
   -10.349754       7.368925      -2.535137  
   -10.818687       7.631251      -3.468425  
    -8.229226       7.041485      -3.945090  
    -8.902887       6.735959      -3.492853  
    -9.510809       7.828466      -3.875563  
    -7.389029       6.874949      -4.213802  
    -6.343478       6.428555      -3.628775  
    -6.580136       7.465341      -3.556742  
    -5.663557       7.053381      -3.926299  
    -4.843394       6.023482      -3.315591  
    -6.225149       6.859297      -2.519478  
    -5.917118       7.462836      -2.817003  
    -4.015092       6.374712      -2.312151  
    -4.914767       6.781037      -1.345666  
    -4.937306       7.547357      -1.658223  
    -2.915698       6.856166      -1.242942  
    -4.482773       6.566918      -0.333457  
    -5.550863       7.894204      -0.578993  
    -4.145317       7.477862      -0.625344  
    -3.672627       6.660830       0.019814  
    -4.202290       7.549235       0.255328  
    -3.647584       7.275639      -0.034053  
    -1.950912       5.759903       0.416305  
    -3.479169       6.869314       0.881696  
    -3.517986       7.253726       0.266603  
    -1.644759       5.977152       0.912388  
    -3.402161       6.089846       1.469228  
    -3.876103       6.280800       0.985672  
    -3.093505       5.526376       1.351471  
    -3.255659       5.263423       2.102485  
    -3.896763       5.570201       1.985355  
    -2.957020       4.694317       2.065530  
    -2.035432       4.644231       2.941191  
    -3.250650       5.295353       2.991300  
    -3.024636       4.796368       2.602953  
    -2.072997       3.628732       3.033267  
    -2.972046       4.311784       3.399692  
