Uncorrected acceleration  (Format v01.20 with 13 text lines)
Record of Hualien City, 0 Earthquake of Tue Apr 02, 2024 23:58 UTC
Hypocenter: 23.81900  121.56160 H= 34km Mw=7.4
Origin: 2024/04/02 23:58:11    UTC
Statn No: 100-       Code:TW-F025    CWB  HWA025, Chong-De Elementary School
Coords: 24.1624  121.6524  Site geology:
Recorder:                 ( ? Chns of   3 at Sta) Sensor: NANOMETRICS TITAN
Rcrd start time: 2024/04/02 23:57:49.135 UTC (Q=5) RcrdId: (see comment)
Sta Chan   ?:360 Deg (Rcrdr Chan  ?) Location:
Raw record length = 222.000 sec, Uncor max =   1420618, at  44.650 sec.
Processed:2024-05-15 06:06:29 GMT, USGS, Max = -349.213 cm/sec2 at   44.650 sec
Record filtered below       Hz (periods over       secs), and above      Hz
Values used when parameter or data value is unknown/unspecified:   -999, -999.00
 100 Integer-header values follow on  10 lines, Format= (10I8)
       1       1       4     120       1    -999    -999    -999    -999    -999
     100     100    -999       2    -999       1    -999    -999       4    -999
    -999    -999       3    -999    -999    -999    -999    -999    -999    1000
       3    -999    -999    -999       0       0    -999    -999    -999    2024
      93       4       2      23      57       5       5    -999    -999    -999
    -999     450    -999     360    -999    -999    -999    -999    -999    -999
    -999    -999    -999    -999    -999    -999    -999    -999    -999    -999
    -999    -999    -999    -999       1       0    -999    -999    -999    -999
    -999    -999    -999    -999    -999    -999    -999    -999    -999    -999
    -999    -999    -999    -999    -999    -999    -999    -999    -999    -999
 100 Real-header values follow on  20 lines, Format= (5F15.6)
      24.162399     121.652385      33.300000    -999.000000    -999.000000
    -999.000000    -999.000000    -999.000000    -999.000000      23.819000
     121.561600      34.750000       7.400000    -999.000000    -999.000000
    -999.000000      39.282279      13.560325    -999.000000    -999.000000
    -999.000000       2.500000    -999.000000      30.000000     192.000000
      40.000000    -999.000000    -999.000000    -999.000000      49.135260
    -999.000000       0.000000    -999.000000       0.010000     222.000000
       1.273219    -999.000000    -999.000000    -999.000000     464.512726
       0.509145      10.010000    -999.000000    -999.000000      40.000000
    -999.000000       1.000000    -999.000000    -999.000000    -999.000000
    -999.000000    -999.000000    -999.000000    -999.000000    -999.000000
    -999.000000    -999.000000    -999.000000    -999.000000    -999.000000
    -999.000000      10.000000     222.000000    -349.212867      44.650000
       0.000000    -999.000000    -999.000000    -999.000000    -999.000000
    -999.000000    -999.000000    -999.000000    -999.000000    -999.000000
    -999.000000    -999.000000    -999.000000    -999.000000    -999.000000
    -999.000000    -999.000000    -999.000000    -999.000000    -999.000000
    -999.000000    -999.000000    -999.000000    -999.000000    -999.000000
    -999.000000    -999.000000    -999.000000    -999.000000    -999.000000
    -999.000000    -999.000000    -999.000000    -999.000000    -999.000000
   3 Comment line(s) follow, each starting with a "|":
| RcrdId: US.7000m9g4.TW.F025.HLN.10
|<SCNL>F025.HLN.TW.10    <AUTH> 2024/04/06 18:57:04.000
|<PROCESS> Automatically processed using PRISM version v2.1.0
   22200 acceleration pts, approx  222 secs, units=cm/sec2(04),Format=(1E15.6)
[...]
  -2.962654e+01
  -7.555403e-02
   2.042510e+01
   3.524308e+01
   3.055896e+01
   2.146160e+01
   1.918628e+01
   5.380069e+00
  -3.318557e+00
  -8.122199e+00
  -1.563541e+01
  -1.583869e+01
  -1.418400e+01
   4.440795e+00
   3.510666e+01
   6.315530e+01
   8.200958e+01
   9.208124e+01
   9.633111e+01
   7.870094e+01
   5.248873e+01
   3.675008e+01
   3.553331e+01
   5.619684e+01
   9.139668e+01
   8.793031e+01
   5.735531e+01
   4.605513e+01
   3.432046e+01
   3.653969e+01
   4.820677e+01
   5.572977e+01
   8.444680e+01
   1.137685e+02
   1.103727e+02
   1.093879e+02
   1.211076e+02
   1.240048e+02
   1.368585e+02
   1.119571e+02
   3.207086e+01
  -2.410111e+01
  -4.174402e+01
  -4.119270e+01
  -1.421780e+01
  -4.058465e+00
   1.792396e+01
   7.092542e+01
   6.755457e+01
   7.747756e+01
   8.155232e+01
   3.193811e+01
   1.242939e+01
  -8.815572e+00
  -2.302199e+01
  -1.484186e+01
  -2.118508e+01
  -1.829403e+01
  -1.233240e+01
  -2.917294e+01
  -4.743379e+01
  -5.706752e+01
  -4.821190e+01
  -3.103385e+01
  -4.459613e+01
  -7.215835e+01
  -6.652369e+01
  -6.211290e+01
  -7.935144e+01
  -6.707844e+01
  -4.842058e+01
  -3.661096e+01
  -6.503138e+01
  -1.140061e+02
  -1.031718e+02
  -7.565828e+01
  -7.148335e+01
  -8.989678e+01
  -1.095537e+02
  -1.298207e+02
  -1.368382e+02
  -1.254331e+02
  -9.674919e+01
  -3.145169e+01
   8.740389e+00
   1.201401e+01
   6.241457e+00
  -3.963680e+00
  -2.205186e+01
  -4.611587e+01
  -6.702455e+01
  -8.764399e+01
  -8.921981e+01
  -7.222938e+01
  -3.787671e+01
   6.217210e+00
   4.485453e+01
   7.032022e+01
   8.515780e+01
   1.001984e+02
   1.303784e+02
   1.464792e+02
   1.463291e+02
   1.533669e+02
   9.790939e+01
   4.480408e+01
   1.859847e+01
  -2.328112e+01
  -3.150312e+01
  -3.950715e+01
  -2.298721e+01
   1.744930e+01
   6.452637e+01
   1.246999e+02
   9.821235e+01
  -4.681545e+00
  -5.399719e+01
  -3.778927e+01
  -3.884219e+01
  -7.686549e+01
  -8.807456e+01
  -6.164069e+01
  -7.013897e+01
  -6.506347e+01
  -3.572508e+01
  -4.563974e+01
  -1.765650e+01
   2.695151e+01
   3.504469e+01
   2.369724e+01
  -1.227753e+01
  -2.622262e+01
  -1.163927e+01
  -4.617375e+00
  -2.883422e+01
  -5.374002e+01
  -3.710986e+01
  -2.975071e+01
  -7.600900e+01
  -9.808915e+01
  -5.895734e+01
  -3.179532e+01
  -4.211296e+00
   2.508913e+01
   2.518367e+01
   5.321345e+01
   8.518523e+01
   7.535483e+01
   8.647132e+01
   9.077409e+01
   6.564786e+01
   3.087564e+01
   9.417352e+00
   1.171991e-01
  -2.186106e+01
  -1.531382e+01
   8.409416e-01
   4.871890e+01
   6.241490e+01
   9.647439e+01
   1.741098e+02
   1.572227e+02
   1.307489e+02
   7.744768e+01
   2.570315e+01
  -1.374118e+01
  -6.859279e+01
  -8.673460e+01
  -8.404536e+01
  -5.513068e+01
  -3.504444e+01
  -1.669543e+01
  -1.886469e+01
  -5.801022e+01
  -5.349167e+01
  -4.388929e+01
  -8.075999e+01
  -8.779535e+01
  -8.150994e+01
  -9.076845e+01
  -9.528701e+01
  -7.217182e+01
  -2.310257e+01
   7.931904e+00
   5.391686e+01
   6.309847e+01
   4.816978e+01
   5.690196e+01
   2.482045e+01
  -7.011726e+00
  -1.172352e+01
  -8.905948e+00
   5.779045e+00
   2.937795e+01
   1.593299e+01
   1.507528e+01
   3.180316e+01
  -4.399970e-01
   1.363318e+01
   2.352751e+01
   8.135923e+00
   3.951182e+01
   3.543167e+01
   4.961988e+00
   3.525524e+00
   3.321260e+00
   2.387620e+00
  -2.986313e+01
  -7.728994e+01
  -5.956303e+01
  -3.621345e+01
  -4.560863e+01
  -4.599904e+01
  -3.057291e+01
  -2.655963e+01
  -2.231710e+01
  -2.411458e+01
  -4.786681e+01
  -7.216153e+01
  -5.217350e+01
   3.834403e+01
   6.619183e+01
   7.164231e+01
   9.520693e+01
   5.798452e+01
   4.805590e+01
   8.082955e+01
   1.095304e+02
   1.138626e+02
   9.244323e+01
   7.736857e+01
   9.954056e+01
   1.149057e+02
   7.806292e+01
   3.895144e+01
   3.061456e+01
   1.298047e+01
  -1.201375e+01
   3.495399e+00
   1.473925e+01
   6.520422e+00
  -1.843396e+00
  -1.514483e+01
  -2.026368e+01
  -1.861757e+01
  -3.862038e+00
   1.488963e+01
   2.768922e+01
   3.469495e+01
   1.897198e+01
  -4.459401e+00
  -1.879783e+01
  -5.402511e+01
  -7.124210e+01
  -6.079106e+01
  -7.641655e+01
  -6.935523e+01
  -4.651264e+01
  -4.419691e+01
  -4.006827e+01
  -2.458508e+01
  -8.075664e+00
  -9.802605e+00
   7.722006e+00
   2.776588e+01
   2.073811e+01
   2.264849e+01
   1.971948e+01
   4.999461e+00
   5.208624e+00
   1.530624e+01
   2.478886e+01
   4.973802e+01
   6.404363e+01
   5.952728e+01
   9.138346e+01
   1.117496e+02
   1.311508e+02
   1.967195e+02
   1.910035e+02
   1.556293e+02
   1.354340e+02
   6.573162e+01
   3.829015e+01
   3.311643e+01
   1.070956e+01
   6.349712e+00
  -2.570167e+01
  -3.869083e+01
  -4.076629e+01
  -7.498621e+01
  -7.392987e+01
  -6.319496e+01
  -6.788839e+01
  -7.233151e+01
  -8.580439e+01
  -8.794549e+01
  -9.206752e+01
  -8.400422e+01
  -6.056206e+01
  -7.419830e+01
  -8.235124e+01
  -7.370772e+01
  -7.938475e+01
  -7.990938e+01
  -9.810458e+01
  -1.000723e+02
  -7.809206e+01
  -8.806648e+01
  -8.032991e+01
  -5.125921e+01
  -5.189356e+01
  -5.167313e+01
  -5.790932e+01
  -7.299157e+01
  -6.791509e+01
  -8.623520e+01
  -9.591817e+01
  -6.474997e+01
  -4.092843e+01
  -4.561672e+01
  -7.630732e+01
  -7.560954e+01
  -7.326760e+01
  -1.208066e+02
  -1.345104e+02
  -1.257342e+02
  -9.795567e+01
  -1.262483e+01
   4.052505e+01
   5.694581e+01
   7.222596e+01
   8.278721e+01
   7.630757e+01
   9.799266e+01
   1.445615e+02
   1.173508e+02
   1.002415e+02
   1.023491e+02
   1.057466e+02
   1.399918e+02
   1.558250e+02
   1.668785e+02
   1.280979e+02
   5.697642e+01
   5.050437e+01
   9.310256e+01
   9.713862e+01
   1.020486e+02
   1.186758e+02
   3.501481e+01
  -4.985679e+01
  -8.901653e+01
  -1.110869e+02
  -9.224925e+01
  -8.001200e+01
  -6.362774e+01
  -4.634095e+01
  -2.832209e+01
  -1.822643e+01
  -1.079307e+01
  -6.061383e-02
   8.935836e+00
   4.552953e+01
   6.880514e+01
   8.803391e+01
   1.131949e+02
   1.166770e+02
   8.137989e+01
   5.537610e+01
   4.111703e+01
  -2.109299e+01
  -4.236881e+01
  -2.206484e+01
  -6.861344e+00
   1.295940e+01
   1.631042e+01
   1.177227e+01
   1.493396e+01
   2.464999e+01
   1.550536e+01
   1.262019e+01
  -6.798644e+00
  -3.625778e+01
  -3.048254e+01
  -1.029724e+02
  -1.472162e+02
  -1.131604e+02
  -1.256959e+02
  -9.543959e+01
  -7.280078e+01
  -6.298605e+01
  -1.521218e+01
   2.924128e+01
   6.181484e+01
   5.103732e+01
   5.623235e+01
   6.927980e+01
   7.890055e+01
   1.035538e+02
   1.243122e+02
   1.287313e+02
   8.382543e+01
   5.892575e+01
   7.339693e+01
   7.334941e+01
   7.765905e+01
   6.366155e+01
   5.134054e+01
   9.100530e+01
   6.766209e+01
   2.513395e+01
   2.924643e+01
   2.235826e+01
   3.309904e+01
  -2.450131e+01
  -5.365797e+01
  -1.737827e+01
  -2.987023e+01
  -2.890084e+01
  -3.026333e+01
  -2.371634e+01
  -3.780568e+01
  -3.592787e+01
  -8.281973e-01
  -1.057705e+01
   1.769438e+00
   1.127989e+00
   3.543893e+00
   8.420032e+00
   1.338679e+01
   9.200042e+01
   7.959001e+01
   5.228128e+01
   7.904530e+01
   3.333955e+01
   8.125882e+00
  -2.301954e+01
  -4.255569e+01
  -3.927056e+01
  -7.881703e+01
  -1.083482e+02
  -1.153617e+02
  -1.064402e+02
  -1.073028e+02
  -1.091990e+02
  -1.136132e+02
  -1.173627e+02
  -1.324310e+02
  -1.670673e+02
  -1.675212e+02
  -1.582293e+02
  -1.608471e+02
  -1.709677e+02
  -1.733486e+02
  -1.642532e+02
  -1.459879e+02
  -9.801812e+01
  -6.262601e+01
  -3.888873e+01
   2.579883e+00
   3.702831e+01
   5.810600e+01
   6.649308e+01
   6.500298e+01
   5.143508e+01
   3.229619e+01
   1.701849e+01
   8.726919e+00
   2.878475e+01
   6.062428e+01
   8.597045e+01
   1.095480e+02
   1.210087e+02
   1.063469e+02
   7.185147e+01
   4.854402e+01
   2.660838e+01
   4.796826e-01
  -2.045938e+01
  -4.341561e+01
  -5.505402e+01
  -7.295753e+01
  -1.104805e+02
  -1.480668e+02
  -1.707801e+02
  -1.800638e+02
  -1.967089e+02
  -2.128424e+02
  -2.260402e+02
  -2.253285e+02
  -1.925771e+02
  -1.738578e+02
  -1.720912e+02
  -1.747429e+02
  -1.821126e+02
  -1.834357e+02
  -1.990636e+02
  -1.978045e+02
  -1.811946e+02
  -1.784655e+02
  -1.806019e+02
  -1.729878e+02
  -1.482694e+02
  -1.387285e+02
  -1.299493e+02
  -1.101236e+02
  -1.002756e+02
  -8.499076e+01
  -5.868670e+01
  -3.522642e+01
  -8.038926e+00
   1.631654e+01
   1.555312e+01
  -3.416526e+00
  -2.084758e+01
  -2.421549e+01
  -3.043894e+01
  -1.549139e+01
   3.704072e+00
   1.229003e+01
   8.286901e+01
   1.544686e+02
   1.936653e+02
   2.098090e+02
   1.783859e+02
   1.753623e+02
   2.008959e+02
   2.282364e+02
   2.650310e+02
   2.790157e+02
   2.721905e+02
   2.380864e+02
   2.236060e+02
   2.640153e+02
   2.586331e+02
   1.820612e+02
   9.232592e+01
   2.069328e+01
  -1.476716e+01
  -1.269268e+01
  -1.358150e+01
  -4.721801e+01
  -6.069309e+01
  -3.909520e+01
  -8.957626e+00
   1.838588e+01
   1.926466e+01
   7.277879e-01
   7.594892e+00
   4.389811e+01
   5.132927e+01
   6.789591e+00
  -2.575727e+01
  -2.415304e+01
  -3.441842e+01
  -2.686946e+01
  -3.521613e+01
  -8.531871e+01
  -7.473909e+01
  -3.184503e+01
  -2.419786e+01
  -3.319578e+01
  -3.516764e+01
  -3.347670e+01
  -3.331848e+01
  -3.582109e+01
  -5.159574e+01
  -4.821680e+01
  -2.523069e+01
   3.404288e+00
   3.069097e+01
   2.981293e+01
   1.802977e+01
   2.622704e+01
   4.052505e+01
   1.790535e+01
  -2.212876e+01
  -3.646033e+01
  -2.729734e+01
  -1.002254e+01
   4.114373e+01
   1.092637e+02
   1.492985e+02
   1.890804e+02
   2.013742e+02
   1.998601e+02
   2.134601e+02
   2.085369e+02
   2.051445e+02
   2.166281e+02
   2.170249e+02
   2.215792e+02
   2.365552e+02
   2.519301e+02
   2.740889e+02
   2.553671e+02
   2.032797e+02
   1.261537e+02
   1.129444e+02
   1.101043e+02
   1.547083e+01
   4.858386e+00
  -2.906355e+00
  -6.053487e+01
  -7.024233e+01
  -6.792660e+01
  -8.890093e+01
  -1.262225e+02
  -1.274920e+02
  -1.246920e+02
  -1.412764e+02
  -1.380253e+02
  -9.191983e+01
  -7.039712e+01
  -6.950242e+01
  -7.543858e+01
  -1.325307e+02
  -1.170211e+02
  -1.180581e+02
  -2.231310e+02
  -2.507097e+02
  -2.405435e+02
  -2.318147e+02
  -1.717074e+02
  -1.143377e+02
  -4.156964e+01
   1.973809e+01
   1.430672e+01
  -4.275220e+00
  -2.647538e+01
  -2.701111e+00
   7.469085e+01
   5.091021e+01
  -5.255150e+00
   7.149070e+01
   1.473490e+02
   1.426839e+02
   1.426761e+02
   1.277837e+02
   1.048255e+02
   7.783319e+01
   1.578090e+01
  -3.196333e+01
  -8.071370e+01
  -1.599105e+02
  -2.187060e+02
  -2.282325e+02
  -2.238354e+02
  -2.302820e+02
  -2.380712e+02
  -2.475578e+02
  -2.267206e+02
  -1.860504e+02
  -1.364933e+02
  -1.024566e+02
  -1.010799e+02
  -7.099620e+01
  -5.766709e+01
  -7.339937e+01
  -7.221297e+01
  -4.810659e+01
  -1.937217e+01
  -1.905867e+01
  -1.094427e+00
   4.845340e+01
   9.283119e+01
   1.392450e+02
   1.936785e+02
   2.211298e+02
   2.169691e+02
   2.247750e+02
   2.477278e+02
   2.502242e+02
   2.366705e+02
   2.040904e+02
   1.452757e+02
   1.243954e+02
   1.278451e+02
   1.053082e+02
   9.543250e+01
   1.198024e+02
   1.703992e+02
   1.998976e+02
   1.514105e+02
   7.512974e+01
   2.083338e+01
  -1.939617e+01
  -4.623490e+01
  -7.832375e+01
  -1.026555e+02
  -1.018519e+02
  -7.131411e+01
  -2.283046e+01
   1.917771e+01
   5.634746e+01
   9.183705e+01
   1.082299e+02
   1.255025e+02
   1.620278e+02
   1.335797e+02
   1.397686e+02
   2.040955e+02
   1.950841e+02
   1.807871e+02
   1.658006e+02
   1.579212e+02
   1.693360e+02
   1.956124e+02
   2.284686e+02
   1.999630e+02
   1.608478e+02
   6.796286e+01
  -1.031865e+02
  -2.141669e+02
  -2.405124e+02
  -2.315416e+02
  -2.852891e+02
  -3.492129e+02
  -2.747781e+02
  -1.976320e+02
  -1.864053e+02
  -1.710475e+02
  -1.852758e+02
  -2.073716e+02
  -2.131983e+02
  -2.177575e+02
  -2.178390e+02
  -2.353497e+02
  -2.315852e+02
  -1.789112e+02
  -1.501646e+02
  -1.215242e+02
  -2.638427e+01
   7.402197e+01
   1.339023e+02
   1.871308e+02
   2.118042e+02
   2.155297e+02
   1.939061e+02
   1.254694e+02
   5.594922e+01
  -4.405706e+01
  -1.159677e+02
  -1.356138e+02
  -1.624229e+02
  -1.777430e+02
  -1.982713e+02
  -2.074695e+02
  -1.774733e+02
  -1.564169e+02
  -1.710417e+02
  -1.356109e+02
  -1.069881e+02
  -9.557895e+01
  -2.674528e+01
   1.596508e+01
   4.183612e+01
   6.070633e+01
   7.527351e+01
   8.676522e+01
   1.002293e+02
   1.056653e+02
   1.283969e+02
   1.888112e+02
   1.910064e+02
   1.701800e+02
   1.496409e+02
   1.354556e+02
   1.174862e+02
   1.470274e+02
   2.359718e+02
   2.630444e+02
   2.557438e+02
   2.111363e+02
   1.337274e+02
   6.154788e+01
   2.377823e+00
  -2.396787e+01
  -1.429275e+01
  -3.693915e+01
  -9.772275e+01
  -9.259336e+01
  -6.605173e+01
  -5.051000e+01
  -2.858758e+01
  -3.753186e+01
  -4.741493e+01
  -3.347695e+01
  -3.244411e+01
  -3.886301e+01
  -5.701829e+01
  -7.974626e+01
  -8.241051e+01
  -9.454318e+01
  -1.018308e+02
  -1.065509e+02
  -1.049031e+02
  -7.574057e+01
  -5.457888e+01
  -6.213935e+01
  -9.402909e+01
  -1.140634e+02
  -1.206802e+02
  -1.351661e+02
  -1.463933e+02
  -1.651062e+02
  -1.763900e+02
  -1.833585e+02
  -1.815806e+02
  -1.705293e+02
  -1.919361e+02
  -1.607501e+02
  -7.104714e+01
  -1.806772e+01
   4.583095e+00
   1.618134e+01
   3.293617e+01
   3.559552e+01
   2.900640e+01
   4.412932e+01
   5.358279e+01
   6.905202e+01
   9.928854e+01
   1.196378e+02
   1.317693e+02
   1.217892e+02
   9.679328e+01
   4.832286e+01
   5.523837e+00
  -2.380476e+01
  -5.645816e+01
  -5.096482e+01
  -2.022915e+01
   4.509333e+01
   9.603745e+01
   1.491903e+02
   1.600829e+02
   1.647303e+02
   2.466587e+02
   2.419143e+02
   2.300638e+02
   1.729283e+02
   5.418505e+01
  -2.579875e+00
  -2.016694e+01
  -2.784816e+01
  -6.069285e+01
  -4.308472e+01
  -3.649634e+01
  -3.048817e+01
  -9.082046e+00
  -1.315411e+01
  -9.451877e+00
  -3.830043e+01
  -3.715493e+01
  -1.166597e+01
  -8.901784e+00
  -2.622801e+01
  -4.643475e+01
  -4.096933e+01
  -4.757535e+01
  -6.146949e+01
  -6.180308e+01
  -5.526417e+01
  -3.446079e+01
  -9.397995e+00
   1.085920e+01
   3.491758e+01
   4.863220e+01
   5.108508e+01
   6.460401e+01
   7.567445e+01
   6.617689e+01
   6.499563e+01
   6.881396e+01
   4.857513e+01
   2.562208e+01
   8.616949e+00
  -5.432963e+00
  -2.614082e+01
  -5.874254e+01
  -8.173967e+01
  -1.044003e+02
  -1.317984e+02
  -1.602127e+02
  -1.921328e+02
  -1.917951e+02
  -1.321219e+02
  -5.251811e+01
  -5.364630e+00
   2.106361e+01
   6.806646e+01
   1.164884e+02
   1.348249e+02
   1.511134e+02
   1.665836e+02
   1.461356e+02
   9.648395e+01
   4.623393e+01
   1.343798e+01
  -1.738463e+01
  -6.397920e+01
  -9.434945e+01
  -9.402762e+01
  -7.796348e+01
  -4.621089e+01
  -1.020705e+00
   5.030207e+01
   1.090795e+02
   1.540853e+02
   1.525575e+02
   1.378149e+02
   1.230978e+02
   7.832474e+01
   2.651653e+01
   3.264438e+00
   6.106015e+00
   1.797025e+01
   3.041201e+01
   1.843903e+01
  -1.798053e+01
  -4.111874e+01
  -5.229915e+01
  -6.475413e+01
  -7.226954e+01
  -6.911030e+01
  -6.975200e+01
  -7.287303e+01
  -6.906597e+01
  -7.592891e+01
  -6.193117e+01
  -7.127492e+01
  -1.095485e+02
  -9.431369e+01
  -7.340720e+01
  -7.279245e+01
  -9.620228e+01
  -9.287747e+01
  -5.804672e+01
  -6.289592e+01
  -6.351018e+01
  -5.092049e+01
  -3.246518e+01
  -3.019508e+00
   3.006667e+01
   5.556077e+01
   7.005963e+01
   9.233865e+01
   9.664878e+01
   8.385801e+01
   7.924099e+01
   8.369562e+01
   1.162944e+02
   1.468295e+02
   1.483767e+02
   1.383885e+02
   9.995105e+01
   5.182866e+01
   1.512867e+01
  -5.238985e+00
  -1.272892e+01
  -3.335522e+01
  -6.168649e+01
  -8.998519e+01
  -1.134849e+02
  -1.277435e+02
  -1.333118e+02
  -1.375166e+02
  -1.403486e+02
  -1.307310e+02
  -9.701835e+01
  -4.876983e+01
  -9.953476e+00
   2.380917e+01
   4.974316e+01
   7.141845e+01
   7.831935e+01
   6.961754e+01
   5.376109e+01
   2.950041e+01
   2.592236e+01
   3.568982e+01
   4.289589e+01
   4.104576e+01
   1.001825e+02
   1.927792e+02
   2.046672e+02
   2.038357e+02
   2.013323e+02
   2.026941e+02
   2.094319e+02
   1.803964e+02
   1.360995e+02
   6.819896e+01
   4.405755e+01
   4.078639e+01
   1.218178e+01
   1.274657e+01
   1.541572e+01
   1.410955e+01
   5.769738e+00
  -3.057928e+01
  -7.648464e+01
  -1.213924e+02
  -1.488182e+02
  -1.409854e+02
  -1.191225e+02
  -9.950039e+01
  -8.072423e+01
  -6.590012e+01
  -5.685077e+01
  -5.748119e+01
  -5.164031e+01
  -4.154000e+01
  -2.885822e+01
  -1.215703e+01
   4.730697e-01
   2.197300e+01
   4.000362e+01
   4.955065e+01
   4.543254e+01
   3.810254e+01
   4.084811e+01
   2.459390e+01
   1.150727e+01
