Uncorrected acceleration  (Format v01.20 with 13 text lines)
Record of Hualien City, 0 Earthquake of Tue Apr 02, 2024 23:58 UTC
Hypocenter: 23.81900  121.56160 H= 34km Mw=7.4
Origin: 2024/04/02 23:58:11    UTC
Statn No: 100-       Code:TW-F025    CWB  HWA025, Chong-De Elementary School
Coords: 24.1624  121.6524  Site geology:
Recorder:                 ( ? Chns of   3 at Sta) Sensor: NANOMETRICS TITAN
Rcrd start time: 2024/04/02 23:57:49.135 UTC (Q=5) RcrdId: (see comment)
Sta Chan   ?:Up      (Rcrdr Chan  ?) Location:
Raw record length = 222.000 sec, Uncor max =   2577372, at  39.670 sec.
Processed:2024-05-15 06:06:29 GMT, USGS, Max =  629.022 cm/sec2 at   39.670 sec
Record filtered below       Hz (periods over       secs), and above      Hz
Values used when parameter or data value is unknown/unspecified:   -999, -999.00
 100 Integer-header values follow on  10 lines, Format= (10I8)
       1       1       4     120       1    -999    -999    -999    -999    -999
     100     100    -999       2    -999       1    -999    -999       4    -999
    -999    -999       3    -999    -999    -999    -999    -999    -999    1000
       3    -999    -999    -999       0       0    -999    -999    -999    2024
      93       4       2      23      57       5       5    -999    -999    -999
    -999     450    -999     400    -999    -999    -999    -999    -999    -999
    -999    -999    -999    -999    -999    -999    -999    -999    -999    -999
    -999    -999    -999    -999       1       0    -999    -999    -999    -999
    -999    -999    -999    -999    -999    -999    -999    -999    -999    -999
    -999    -999    -999    -999    -999    -999    -999    -999    -999    -999
 100 Real-header values follow on  20 lines, Format= (5F15.6)
      24.162399     121.652385      33.300000    -999.000000    -999.000000
    -999.000000    -999.000000    -999.000000    -999.000000      23.819000
     121.561600      34.750000       7.400000    -999.000000    -999.000000
    -999.000000      39.282279      13.560325    -999.000000    -999.000000
    -999.000000       2.500000    -999.000000      30.000000     192.000000
      40.000000    -999.000000    -999.000000    -999.000000      49.135260
    -999.000000       0.000000    -999.000000       0.010000     222.000000
       2.231533    -999.000000    -999.000000    -999.000000     464.512726
       0.509145      10.010000    -999.000000    -999.000000      40.000000
    -999.000000       1.000000    -999.000000    -999.000000    -999.000000
    -999.000000    -999.000000    -999.000000    -999.000000    -999.000000
    -999.000000    -999.000000    -999.000000    -999.000000    -999.000000
    -999.000000      10.000000     222.000000     629.021842      39.670000
       0.000000    -999.000000    -999.000000    -999.000000    -999.000000
    -999.000000    -999.000000    -999.000000    -999.000000    -999.000000
    -999.000000    -999.000000    -999.000000    -999.000000    -999.000000
    -999.000000    -999.000000    -999.000000    -999.000000    -999.000000
    -999.000000    -999.000000    -999.000000    -999.000000    -999.000000
    -999.000000    -999.000000    -999.000000    -999.000000    -999.000000
    -999.000000    -999.000000    -999.000000    -999.000000    -999.000000
   3 Comment line(s) follow, each starting with a "|":
| RcrdId: US.7000m9g4.TW.F025.HLZ.10
|<SCNL>F025.HLZ.TW.10    <AUTH> 2024/04/06 18:57:04.000
|<PROCESS> Automatically processed using PRISM version v2.1.0
   22200 acceleration pts, approx  222 secs, units=cm/sec2(04),Format=(1E15.6)
[...]
   8.443070e+01
   5.059261e+01
   2.391455e+01
   2.307423e+01
   4.336743e+01
   7.085299e+01
   8.129766e+01
   2.961314e+01
  -1.976300e+01
  -1.866061e+01
  -9.620320e+00
  -1.555354e+01
  -2.768400e+00
   1.366582e+01
  -5.828203e+00
   1.231407e-01
  -1.122259e+01
  -1.654327e+01
   4.053198e+01
   4.612108e+01
  -1.274894e+01
  -5.242767e+01
  -6.351893e+01
  -7.246909e+01
  -3.727610e+01
   3.729852e+01
   8.913710e+01
   6.080093e+01
  -2.329722e+01
  -5.866067e+01
  -6.281674e+01
  -6.629071e+01
  -6.204083e+01
  -5.852156e+01
  -4.030651e+01
  -3.623421e+00
   1.395630e+01
   9.652785e+00
   6.222172e+00
  -1.238279e+01
  -1.321087e+01
  -2.528304e+01
  -6.070870e+01
  -5.393394e+01
  -3.720385e+01
  -7.739569e+00
   8.483528e-01
  -7.025133e+00
   3.048775e+01
   4.082025e+01
   4.256360e+01
   6.341987e+01
   7.458535e+01
   4.730674e+01
   1.793970e+01
   5.855108e+01
   6.837218e+01
   5.504479e+01
   4.578040e+01
  -8.332033e+00
  -7.078820e+01
  -1.008805e+02
  -4.497888e+01
   3.000428e+01
   6.125550e+01
   4.873904e+01
  -3.426210e+01
  -8.038544e+01
  -3.618718e+01
  -4.351817e+00
   1.445300e+01
   4.307695e+01
   4.253004e+01
   3.026830e+01
   3.372978e+01
   3.698943e+01
   9.113468e+00
  -2.521520e+01
  -4.533695e+01
  -8.961040e+01
  -9.498985e+01
  -1.542398e+01
   5.612661e+01
   6.003604e+01
   1.224650e+01
   1.043212e+01
   5.080104e+01
   7.081968e+01
   3.627818e+01
  -7.542431e+01
  -8.506466e+01
  -4.131412e+01
  -2.948172e+01
   6.679611e+01
   1.118920e+02
   7.004818e+01
   2.536449e+01
  -2.819592e-01
  -2.752064e+01
  -4.047918e+01
   2.207887e+01
   7.704191e+00
  -4.405675e+01
  -2.223940e+01
  -1.782763e+01
  -4.706904e+01
  -1.105845e+02
  -1.240483e+02
  -6.761304e+01
  -3.109355e+01
  -1.716145e+01
  -9.048918e+00
  -3.439243e-01
   2.025078e+01
   6.933325e+01
   1.088327e+02
   1.123010e+02
   8.619878e+01
   3.014339e+01
  -4.286153e+01
  -4.603204e+01
   3.602714e+01
   7.708330e+01
   6.470938e+01
   1.605895e+01
  -1.102176e+01
   7.148706e-01
  -1.056914e+01
  -2.726911e+01
  -2.956328e+01
  -4.917095e+00
  -2.749052e+00
   1.050438e+01
   6.503023e+01
   9.531941e+01
   7.566080e+01
   2.219251e+01
  -5.950026e+01
  -1.142860e+02
  -6.466982e+01
  -3.558321e+01
  -1.396596e+00
   2.399464e+01
  -1.404262e+01
  -2.236358e+01
  -5.545441e+01
  -4.033247e+01
  -3.604341e+01
  -8.935201e+01
  -8.576122e+01
  -1.058053e+02
  -8.952394e+01
   1.961692e+01
   6.464277e+01
   2.592732e+01
  -1.462529e+01
  -4.146426e+01
  -4.797843e+01
  -4.371876e+01
  -3.330323e+01
   3.375745e+01
   1.197785e+02
   1.520554e+02
   1.543359e+02
   1.095702e+02
   5.102930e+01
   2.769271e+00
  -2.753631e+01
  -2.832864e+01
  -4.570899e+01
  -4.057078e+01
  -3.128704e+01
  -4.097172e+01
  -5.211809e+01
  -1.454789e+01
   6.421024e+01
   4.551466e+01
   2.105776e-01
  -2.455195e+01
  -4.084363e+01
  -8.856410e+00
  -1.142612e+01
  -3.664984e+01
  -5.637703e+01
  -2.454632e+01
   3.232221e+01
   5.093183e+01
   3.868845e+01
   7.014982e+00
   3.167783e+01
   3.471240e+01
   3.006257e+01
   2.481807e+01
   2.298826e+01
   4.200126e+01
   1.196778e+01
   5.073417e+01
   3.854370e+01
  -1.266910e+01
   1.204640e+01
   4.753376e-01
   2.243547e+01
   2.685802e+01
  -2.582554e+01
  -5.191725e+01
  -5.175144e+01
  -5.908194e+01
  -4.051053e+01
   9.020643e+00
  -1.764223e+00
  -1.906277e+01
  -3.404020e+01
  -3.606937e+01
   5.283143e+00
   2.653668e+01
   2.564027e+00
  -4.704038e+01
  -6.853027e+01
  -8.075968e+01
  -7.153986e+01
  -2.654095e+01
   4.419649e+01
   1.330216e+02
   1.531784e+02
   1.009852e+02
   6.946257e+01
   4.781398e+01
  -2.019308e+01
  -4.635950e+01
  -3.844193e+01
  -2.746553e+01
   6.943441e+01
   1.578603e+02
   1.481012e+02
   7.908602e+01
   7.388487e+00
  -6.958269e+01
  -1.326316e+02
  -1.116264e+02
  -8.619595e+01
  -6.505165e+01
  -3.176023e+01
  -3.269436e+01
  -3.032744e+01
  -3.134313e+01
  -3.026841e+01
  -6.475285e+00
   4.021162e+01
   3.928533e+01
  -1.206047e+01
   8.365723e+00
   2.246070e+01
  -1.717786e+01
  -1.881418e+01
   1.052936e+01
   1.699602e+01
  -2.623897e+00
  -3.153319e+01
  -5.645516e+01
  -5.499640e+01
  -6.032173e+01
  -5.966926e+01
  -6.767647e+01
  -9.687109e+01
  -1.022410e+02
  -1.027617e+02
  -4.589366e+01
   4.803979e+01
   9.707108e+01
   1.212566e+02
   9.993740e+01
   2.859574e+01
   2.673458e+01
   7.988202e+01
   3.993486e+01
  -1.839683e+01
  -3.237914e+01
  -8.069502e+01
  -1.149086e+02
  -7.979567e+01
  -3.450482e+01
   6.682624e+00
   2.770863e+01
   7.230758e+00
   1.458917e+01
   2.341932e+01
   6.188226e+01
   1.127431e+02
   1.009817e+02
   1.227190e+02
   1.009357e+02
   7.543082e+01
   1.203163e+02
   1.091271e+02
   9.078444e+01
   9.488786e+01
   8.419851e+01
   4.303409e+01
   2.313130e+01
   2.886833e+01
  -2.841877e+00
  -3.258635e+01
  -4.335040e+01
  -3.650435e+01
  -6.598602e+01
  -7.742507e+01
  -3.890875e+00
   4.180336e+01
   9.461379e+01
   1.636752e+02
   1.343643e+02
   2.765107e+01
  -6.167443e+01
  -9.060797e+01
  -1.218886e+02
  -1.202050e+02
  -4.650743e+01
  -5.547939e+01
  -1.113748e+02
  -1.135929e+02
  -1.168050e+02
  -6.444082e+01
   3.133298e+01
   4.184745e+01
   7.912129e+00
  -1.561256e+01
  -2.524434e+01
   1.189724e+01
   4.803735e+01
   4.842040e+01
   2.249523e+01
  -3.810345e+01
  -8.295393e+01
  -1.038261e+02
  -1.439489e+02
  -1.602126e+02
  -1.763020e+02
  -1.339042e+02
  -2.797546e+01
  -3.261868e+01
  -6.165826e+01
  -1.279401e+01
   8.689069e+01
   1.460972e+02
   1.800708e+02
   2.015153e+02
   7.220373e+01
  -3.740640e+01
  -4.927137e+01
  -8.528044e+01
  -7.221290e+01
  -2.441014e+01
  -2.549073e+01
  -1.897191e+01
  -4.255073e+00
   1.210836e+00
   3.740947e+01
   6.735698e+01
   8.190556e+01
   6.121656e+01
   3.551305e+00
  -3.181974e+01
  -3.480044e+01
  -1.325838e+01
  -1.682835e+01
  -7.351319e+01
  -1.043586e+02
  -4.333448e+01
   2.541249e+00
   6.650539e+00
   1.072571e+02
   1.675212e+02
   1.070350e+02
   4.749852e+01
  -2.234227e+01
  -5.825998e+00
   1.638494e+01
  -2.645058e+01
  -3.703758e-01
   1.898796e+01
   2.469708e+01
  -1.146384e+01
  -4.229429e+01
  -1.969614e+01
  -6.989815e+01
  -1.306805e+02
  -1.187173e+02
  -8.145183e+01
  -7.656540e+01
  -1.764884e+01
   1.348193e+02
   2.725031e+02
   2.553157e+02
   1.669420e+02
   1.596179e+02
   1.505479e+02
   1.441939e+02
   8.443755e+01
  -1.530151e+01
  -6.860742e+01
  -1.369079e+02
  -1.686617e+02
  -1.585746e+02
  -1.368638e+02
  -1.067667e+02
  -1.274285e+02
  -1.063067e+02
  -3.462581e+01
   1.420269e+01
   1.059083e+02
   1.413585e+02
   1.000537e+02
   8.780890e+01
   9.562556e+01
   9.877329e+01
   8.707780e+01
   6.359818e+01
   3.662793e+01
   2.295348e+00
  -8.672351e+01
  -1.956168e+02
  -2.547386e+02
  -2.532127e+02
  -2.141884e+02
  -1.067245e+02
   8.083819e+00
   8.847459e+01
   1.810568e+02
   1.672504e+02
   1.324025e+02
   1.636909e+02
   1.927947e+02
   1.914797e+02
   1.459564e+02
   1.013445e+02
   4.253935e+01
  -1.899860e+01
  -7.785467e+01
  -1.283278e+02
  -1.864506e+02
  -2.062468e+02
  -1.339172e+02
  -8.399876e+01
  -6.911073e+01
  -6.440555e+01
  -1.850533e+01
   7.057501e+01
   6.995584e+01
  -2.909230e+00
   4.085846e+01
   1.392027e+02
   8.712434e+01
   2.512422e+01
   1.910552e+01
   3.692453e+01
   5.363453e+01
  -2.642462e+01
  -8.363236e+01
  -7.584582e+01
  -5.034829e+01
  -4.004763e+00
   2.107493e+00
  -3.617934e+01
  -4.212799e+01
  -3.317685e+01
  -7.019475e+01
   2.115527e+01
   1.381914e+02
   6.034881e+01
   8.919490e+00
  -4.954201e+01
  -1.582739e+02
  -1.106264e+02
   1.936857e+01
   1.177033e+02
   1.235427e+02
   4.460428e+01
   3.202997e-02
  -7.697099e+01
  -4.855669e+01
   7.795889e+01
   4.013713e-01
  -5.290306e+01
  -3.762756e+01
  -1.645754e+01
   5.163818e+01
   7.289098e+01
   1.215404e+02
   9.595204e+01
  -6.659711e+00
  -6.837817e+01
  -9.319091e+01
  -1.214225e+02
  -1.217321e+02
  -6.747955e+01
  -5.500498e+00
   8.896321e+01
   1.183161e+02
   7.601863e+01
   2.280310e+01
   4.268900e+01
   1.275410e+02
   1.117284e+02
   4.520924e+01
  -4.327863e+01
  -1.174117e+02
  -9.801953e+01
   1.426612e+01
   1.575272e+02
   2.321423e+02
   2.632235e+02
   2.557010e+02
   1.798239e+02
   5.821407e+01
  -9.311204e+01
  -1.819996e+02
  -2.095952e+02
  -2.626547e+02
  -2.700466e+02
  -2.375174e+02
  -2.408914e+02
  -1.093971e+02
   1.517057e+02
   2.859877e+02
   3.790742e+02
   3.329132e+02
   1.465009e+02
   5.207046e+01
  -7.630652e+01
  -1.405697e+02
  -1.298816e+02
  -1.119342e+02
  -1.065227e+02
  -8.796233e+01
   4.245167e+00
   1.006300e+02
   2.684178e+02
   2.968838e+02
   2.266435e+02
   1.670211e+02
   5.377610e+01
   4.719163e+01
   2.726753e+01
  -1.241561e+02
  -2.016293e+02
  -1.430099e+02
  -1.198288e+02
  -2.047670e+01
   6.052931e+00
  -4.627867e+01
   3.006355e+00
  -5.839518e+01
  -1.014800e+02
  -1.130557e+02
  -1.406192e+02
  -1.899640e+01
   1.834041e+02
   2.251248e+02
   2.266308e+02
   1.888424e+02
  -2.865291e+01
  -1.325385e+02
  -1.563897e+02
  -2.128702e+02
  -2.062863e+02
  -1.766777e+02
  -7.436209e+01
   2.050515e+02
   2.394605e+02
  -1.198528e+01
  -1.349613e+02
  -2.718304e+02
  -3.233513e+02
  -2.449028e+02
  -2.292224e+02
  -1.753003e+02
  -5.423837e+01
   1.041385e+02
   2.605019e+02
   3.370208e+02
   3.368376e+02
   2.196870e+02
   3.806586e+01
  -7.724310e+01
  -1.332488e+02
  -1.142772e+02
   2.526015e+01
   1.636373e+02
   1.551804e+02
   1.039323e+02
   9.776470e+00
  -1.332355e+02
  -1.522615e+02
  -1.364455e+02
  -1.916037e+02
  -1.905542e+02
  -1.749476e+02
  -1.452879e+02
  -2.732985e+01
   6.058515e+01
   1.997296e+02
   2.570317e+02
   1.678511e+02
   3.087745e+02
   3.181253e+02
  -3.259370e+01
  -2.290576e+02
  -2.908865e+02
  -3.392692e+02
  -3.364948e+02
  -2.157079e+02
   5.033005e+01
   2.203449e+02
   1.949392e+02
   8.203683e+01
   1.311504e+02
   9.081775e+01
  -1.232797e+02
  -1.265996e+02
  -1.415131e+02
  -2.299263e+02
  -2.170028e+02
  -2.010278e+02
  -1.574859e+02
   7.112583e+01
   2.864308e+02
   2.570596e+02
   2.398690e+02
   1.157823e+02
  -1.774179e+02
  -1.469306e+02
  -1.659127e+01
  -2.221662e+01
   7.960868e+00
   4.944172e+01
   1.814394e+02
   2.038568e+02
   9.345286e+01
   1.536802e+01
  -8.893074e+01
  -1.191254e+02
  -6.737350e+01
  -7.609834e+01
  -8.800176e+01
  -2.903964e+01
  -2.711921e+01
   5.265656e+01
   2.124018e+02
   2.330585e+02
   9.800570e+01
  -2.400602e+01
   3.954347e+01
   3.847635e+01
  -9.768815e+01
  -1.510952e+02
  -1.799788e+02
  -1.448749e+02
   5.647978e+01
   1.980747e+02
   2.718962e+02
   2.106178e+02
  -4.585374e+01
  -8.169528e+01
  -7.172918e+01
  -1.764078e+02
  -1.627285e+02
  -1.268007e+02
  -9.369912e+01
  -4.651649e+01
   1.442255e+02
   3.039894e+02
   1.553325e+02
  -3.207226e+01
  -1.678331e+02
  -1.782310e+02
  -1.287011e+02
  -1.222214e+02
  -7.268168e+01
  -6.744918e+01
   4.658300e+01
   1.363868e+02
   2.448696e+02
   4.146461e+02
   2.560468e+02
   1.034170e+02
   5.954154e+01
  -1.927046e+01
  -1.222146e+02
  -2.244523e+02
  -2.771288e+02
  -3.056702e+02
  -1.842784e+02
  -1.021996e+02
   2.432027e+02
   4.824205e+02
   2.150428e+02
   1.817881e+02
   1.487816e+02
   5.287822e+01
   3.790808e-02
  -1.475825e+02
  -1.890367e+02
  -2.080235e+02
  -1.500112e+02
   2.240486e+01
   4.900870e+01
  -1.731256e+01
   6.120236e+01
   2.823301e+01
  -2.227303e+02
  -2.750808e+02
  -3.324423e+02
  -4.278460e+02
  -3.874458e+02
  -3.332545e+02
  -1.460704e+02
  -1.098140e+02
   2.990227e+02
   6.290218e+02
   4.045909e+02
   4.626539e+02
   2.145809e+02
  -6.177803e+01
  -1.415768e+02
  -1.713962e+02
  -4.981313e+01
  -3.662020e+01
   6.976970e+01
   1.493074e+02
   1.585020e+02
   5.272465e+01
  -7.705280e+00
  -5.340221e+01
  -4.200333e+01
   1.194745e+01
  -3.483105e+01
   4.948850e+01
   7.755110e+01
   1.503309e+02
   1.129724e+02
   1.433323e+01
   2.171345e+01
  -6.145033e+01
  -3.564885e+00
   5.103984e+01
   1.877268e+01
   7.972282e+01
   5.273004e+01
   3.286080e+01
   1.460691e+02
   4.756073e+01
  -7.598273e+01
  -7.520388e+01
  -1.411526e+02
  -1.659534e+02
  -5.658202e+01
   5.467471e+01
   2.290768e+01
   7.400537e+01
   2.542743e+01
  -9.386395e+01
  -1.964079e+01
  -5.249257e+01
  -1.008325e+02
  -6.694171e+01
  -3.094954e+01
  -7.381249e+00
   2.445730e+01
   9.777180e+01
   1.548897e+02
   1.974727e+02
   1.775062e+01
  -1.707624e+02
  -1.141841e+02
  -1.853636e+02
  -1.196911e+02
   1.381285e+02
   4.564765e+01
  -1.130440e+01
   1.059794e+01
  -1.095548e+02
  -7.800064e+01
  -6.909848e+01
  -3.990533e+01
  -2.041474e+00
  -1.561624e+01
   1.097778e+02
   1.586294e+02
   1.298465e+02
   1.634906e+02
   1.516626e+02
   4.695087e+01
  -1.346436e+01
   4.580758e+01
   7.805025e+01
  -3.514602e+01
  -5.295376e+01
   2.846887e+01
  -4.353262e+01
  -1.033669e+02
  -1.512194e+02
  -1.458078e+02
  -1.125341e+02
  -2.117830e+02
  -1.543556e+02
  -4.075888e+01
  -1.423319e+02
  -1.799175e+02
  -1.190401e+02
  -1.842887e+02
  -1.667040e+02
  -7.356560e+01
  -6.487531e+01
  -1.860648e+01
   2.060861e+01
   1.658582e+02
   3.003257e+02
   2.729831e+02
   3.575711e+02
   3.725924e+02
   3.000386e+02
   1.822126e+02
   8.794091e+00
  -5.786958e+01
  -1.002684e+02
  -9.717553e+00
  -1.077316e+01
  -7.526511e+01
  -1.148890e+02
  -2.131267e+02
  -2.245726e+02
  -1.642249e+02
   6.570719e+01
   4.887081e+01
  -7.363492e+01
  -3.238747e+01
  -8.519520e+01
  -5.004581e+01
   5.771394e+01
   1.793460e+02
   2.363436e+02
   9.637379e+01
  -9.576209e+01
  -1.537644e+02
  -1.664363e+02
  -1.228261e+02
  -2.734185e+01
   9.234704e+01
   2.193625e+02
   2.122137e+02
   1.918096e+02
   1.402710e+02
   1.531493e+02
   1.816282e+02
   9.405341e+01
   3.266584e+01
  -6.785526e+01
  -6.527894e+01
   1.431486e+01
   1.762840e+01
   7.137688e+00
   6.426926e+00
  -4.113459e+01
  -8.991557e+01
   4.052169e+01
   5.776391e+01
   1.947756e+01
   1.757011e+02
   1.412074e+02
  -6.719030e+01
  -1.200377e+02
  -1.155858e+02
  -1.555890e+02
  -1.149820e+02
  -8.238375e+01
  -1.145500e+02
  -1.284733e+02
  -1.652524e+02
  -1.297028e+02
  -2.286934e+01
  -5.760849e+01
  -7.820515e+01
  -1.202628e+02
  -1.077397e+02
   1.400484e+02
   2.316997e+02
   3.324699e+02
   2.787251e+02
  -1.274478e+01
  -8.678009e+01
  -1.303352e+02
  -1.282734e+02
  -1.570015e+02
  -2.389335e+02
  -2.135737e+02
  -1.040355e+02
   6.905674e+01
   1.964077e+02
   4.151325e+02
   4.976042e+02
   2.981187e+02
   2.215237e+02
   1.379649e+02
   1.364525e+01
   3.496638e+01
  -3.978263e+01
  -7.650589e+01
  -8.707988e+00
  -6.238568e+01
  -5.761363e+01
  -5.431062e+01
  -6.007975e+00
   5.418218e+01
  -6.735562e+01
  -6.908575e+01
  -8.266002e+01
  -7.536235e+01
   6.068459e+01
   3.061340e+01
  -1.115500e+01
   4.483990e+01
   1.275555e+02
   1.498293e+02
   1.423681e+02
  -1.901137e-01
  -3.036351e+02
  -3.809024e+02
  -4.576429e+02
  -2.753595e+02
   1.642297e+02
   9.126571e+01
   5.519248e+01
   9.203428e+01
  -1.059584e+01
  -8.133794e+01
  -1.784928e+02
  -1.988277e+01
   2.781933e+01
  -2.414611e+01
  -1.153218e+01
  -3.444359e+01
   4.648822e+01
   6.967394e+01
   7.029310e+01
   6.180339e+01
  -6.666568e+00
  -1.335902e+02
  -1.111174e+02
   9.344674e+00
  -2.640135e+01
  -3.395693e+01
  -4.853587e+01
  -3.903341e+01
   5.646607e+01
   1.341507e+02
   1.623982e+02
   1.716046e+02
   1.969799e+02
   1.514201e+02
   1.041912e+02
   1.056154e+02
   1.186565e+02
   1.013616e+02
   3.861939e+01
  -2.776581e+01
  -1.262822e+02
  -1.809058e+02
  -1.837447e+02
  -1.427686e+02
  -1.628561e+01
   1.238398e+02
   2.229709e+02
   1.486772e+02
   9.570173e+01
   1.825104e+02
   1.272243e+02
   1.550175e+01
   7.505559e+00
   7.025685e+01
   1.017153e+01
  -1.221884e+02
  -9.101380e+01
  -1.115083e+01
   4.278746e+01
   1.207493e+02
   1.652880e+02
   1.041197e+02
   6.626831e+01
   9.258976e+01
   3.296094e-01
  -1.414375e+02
  -1.572153e+02
  -1.104103e+02
  -4.272144e+01
  -6.233596e+01
  -1.031778e+02
   1.570234e+01
   2.877208e+01
  -4.594828e+01
  -4.999364e+01
  -3.006366e+01
  -5.074530e+01
  -1.462845e+02
  -1.086085e+02
  -2.107823e+01
   2.441052e+01
   1.177295e+02
   1.247396e+02
   2.381487e+01
   1.368076e+00
   8.047938e+01
   3.063911e+01
  -1.056954e+02
  -1.418930e+02
  -1.894585e+02
  -2.645604e+02
  -2.094188e+02
  -1.517847e+02
  -9.174660e+01
   9.493807e+01
   1.405623e+02
   9.607646e+01
   2.974172e+01
  -1.250610e+02
  -1.592795e+02
  -1.304062e+02
