Uncorrected acceleration  (Format v01.20 with 13 text lines)
Record of Hualien City, 0 Earthquake of Tue Apr 02, 2024 23:58 UTC
Hypocenter: 23.81900  121.56160 H= 34km Mw=7.4
Origin: 2024/04/02 23:58:11    UTC
Statn No: 100-       Code:TW-F025    CWB  HWA025, Chong-De Elementary School
Coords: 24.1624  121.6524  Site geology:
Recorder:                 ( ? Chns of   3 at Sta) Sensor: NANOMETRICS TITAN
Rcrd start time: 2024/04/02 23:57:49.135 UTC (Q=5) RcrdId: (see comment)
Sta Chan   ?: 90 Deg (Rcrdr Chan  ?) Location:
Raw record length = 222.000 sec, Uncor max =   1232595, at  43.550 sec.
Processed:2024-05-15 06:06:20 GMT, USGS, Max =  308.644 cm/sec2 at   43.550 sec
Record filtered below       Hz (periods over       secs), and above      Hz
Values used when parameter or data value is unknown/unspecified:   -999, -999.00
 100 Integer-header values follow on  10 lines, Format= (10I8)
       1       1       4     120       1    -999    -999    -999    -999    -999
     100     100    -999       2    -999       1    -999    -999       4    -999
    -999    -999       3    -999    -999    -999    -999    -999    -999    1000
       3    -999    -999    -999       0       0    -999    -999    -999    2024
      93       4       2      23      57       5       5    -999    -999    -999
    -999     450    -999      90    -999    -999    -999    -999    -999    -999
    -999    -999    -999    -999    -999    -999    -999    -999    -999    -999
    -999    -999    -999    -999       1       0    -999    -999    -999    -999
    -999    -999    -999    -999    -999    -999    -999    -999    -999    -999
    -999    -999    -999    -999    -999    -999    -999    -999    -999    -999
 100 Real-header values follow on  20 lines, Format= (5F15.6)
      24.162399     121.652385      33.300000    -999.000000    -999.000000
    -999.000000    -999.000000    -999.000000    -999.000000      23.819000
     121.561600      34.750000       7.400000    -999.000000    -999.000000
    -999.000000      39.282279      13.560325    -999.000000    -999.000000
    -999.000000       2.500000    -999.000000      30.000000     192.000000
      40.000000    -999.000000    -999.000000    -999.000000      49.135260
    -999.000000       0.000000    -999.000000       0.010000     222.000000
      -6.755116    -999.000000    -999.000000    -999.000000     464.512726
       0.509145      10.010000    -999.000000    -999.000000      40.000000
    -999.000000       1.000000    -999.000000    -999.000000    -999.000000
    -999.000000    -999.000000    -999.000000    -999.000000    -999.000000
    -999.000000    -999.000000    -999.000000    -999.000000    -999.000000
    -999.000000      10.000000     222.000000     308.643921      43.550000
       0.000000    -999.000000    -999.000000    -999.000000    -999.000000
    -999.000000    -999.000000    -999.000000    -999.000000    -999.000000
    -999.000000    -999.000000    -999.000000    -999.000000    -999.000000
    -999.000000    -999.000000    -999.000000    -999.000000    -999.000000
    -999.000000    -999.000000    -999.000000    -999.000000    -999.000000
    -999.000000    -999.000000    -999.000000    -999.000000    -999.000000
    -999.000000    -999.000000    -999.000000    -999.000000    -999.000000
   3 Comment line(s) follow, each starting with a "|":
| RcrdId: US.7000m9g4.TW.F025.HLE.10
|<SCNL>F025.HLE.TW.10    <AUTH> 2024/04/06 18:57:04.000
|<PROCESS> Automatically processed using PRISM version v2.1.0
   22200 acceleration pts, approx  222 secs, units=cm/sec2(04),Format=(1E15.6)
[...]
  -3.011804e+01
  -2.949324e+01
  -2.346695e+01
   7.379278e+01
   1.340461e+02
   6.367802e+01
   6.450463e+01
   9.211412e+01
   8.680667e+01
   6.675349e+01
   1.573883e+01
  -2.612145e+00
  -1.779433e+01
  -3.330887e+01
  -2.614125e+01
  -2.274125e+01
  -9.634775e+00
  -5.865925e+00
  -2.187717e+01
  -3.342570e+01
  -5.242645e+01
  -5.865945e+01
  -6.270335e+01
  -8.080181e+01
  -9.431216e+01
  -9.692474e+01
  -8.675070e+01
  -8.457923e+01
  -8.762630e+01
  -9.019626e+01
  -8.590034e+01
  -7.802832e+01
  -8.294781e+01
  -8.857953e+01
  -7.608683e+01
  -6.034549e+01
  -4.048139e+01
  -6.711638e+00
   1.058813e+01
   3.470456e+01
   5.223627e+01
   3.844720e+01
   3.263644e+01
   3.271555e+01
   2.949680e+01
   1.588750e+01
   7.532741e+00
   2.800861e+00
  -1.488589e+01
  -3.413866e+01
  -5.037744e+01
  -6.012874e+01
  -8.193384e+01
  -6.586112e+01
  -5.607533e+00
   3.052620e+01
   5.347802e+01
   6.595285e+01
   8.546009e+01
   1.026959e+02
   5.850601e+01
   1.824487e+01
   4.207938e+01
   2.289249e+01
  -3.596700e+01
  -4.437833e+01
  -1.977966e+01
   1.460337e+01
   1.770236e+01
   2.021766e+00
   1.378387e+01
   5.199258e+01
   9.093090e+01
   1.035997e+02
   9.820874e+01
   9.904319e+01
   1.136439e+02
   9.767114e+01
   7.986903e+01
   9.138817e+01
   8.828967e+01
   7.058725e+01
   3.487453e+01
  -8.946791e+00
  -4.127934e+01
  -4.157496e+01
  -9.823364e+00
   6.416346e-01
  -1.392629e+01
  -5.043969e+00
  -4.751288e+00
  -1.941399e+01
   7.750231e+00
   2.254838e+01
   2.486044e+01
   4.229100e+01
   4.201815e+01
   2.788129e+01
   6.560403e+00
  -9.428796e+00
  -6.639632e+00
   3.229718e+00
  -7.171111e+00
  -5.437803e+00
  -4.336881e+00
  -2.621423e+01
  -3.448768e+01
  -2.951357e+01
   2.012704e+00
   3.385860e+01
   3.614886e+01
   1.504350e+01
   7.641731e+00
   2.181827e+01
   1.929558e+01
   1.273952e+01
   2.707791e+00
  -7.874035e+00
  -1.856779e+01
  -4.574945e+00
   4.182687e+01
   6.558155e+01
   5.890621e+01
   4.848898e+01
   3.806733e+01
   1.296142e+01
  -1.929545e+01
  -4.112309e+01
  -3.686709e+01
  -3.307571e+01
  -4.103295e+01
  -4.135282e+01
  -5.193097e+01
  -4.747757e+01
  -6.196814e+00
   1.539447e+01
   1.364083e+01
   1.104565e+01
  -5.970751e+00
  -2.740529e+01
  -6.846292e+01
  -9.066210e+01
  -8.547907e+01
  -6.836764e+01
  -4.335407e+01
  -4.133200e+01
  -9.068516e+00
   2.527680e+01
   5.119364e+01
   7.577591e+01
   7.454860e+01
   6.777873e+01
   5.255051e+01
   3.286814e+01
   3.104563e+00
  -3.189029e+01
  -6.206410e+01
  -5.788624e+01
  -3.795184e+01
   2.436663e+00
   1.995613e+01
   1.216763e+01
   4.872777e+01
   4.705178e+01
   6.318666e+00
  -4.734164e+01
  -8.134970e+01
  -9.300893e+01
  -7.109484e+01
  -4.495488e+01
  -4.579251e+01
  -1.969962e+00
  -7.914001e-01
  -4.457627e+00
   6.149670e+00
  -2.489190e+01
  -4.260021e+01
  -5.732414e+01
  -6.423313e+01
  -3.046190e+01
   5.789146e+00
  -1.347955e+01
  -6.124778e+01
  -9.705699e+01
  -9.097584e+01
  -7.969746e+01
  -7.457591e+01
  -4.066533e+01
   5.029155e+00
   5.772447e+01
   9.299706e+01
   9.544872e+01
   6.925634e+01
   1.922382e+01
  -3.161548e+01
  -5.618281e+01
  -6.142094e+01
  -6.245769e+01
  -4.308172e+01
   1.805011e+00
   2.283861e+01
   2.308574e+01
   2.423589e+01
  -1.210897e+01
  -4.362643e+01
  -3.720483e+01
  -3.240242e+01
  -2.573345e+01
   8.309387e+00
   3.662744e+01
   5.495049e+01
   5.884964e+01
   5.762454e+01
   8.854145e+01
   7.078514e+01
   7.907059e+01
   1.377785e+02
   8.488673e+01
  -1.053927e+01
  -4.691131e+01
  -4.392694e+01
  -4.951482e+01
  -7.552327e+01
  -3.203332e+01
   8.801609e+01
   1.524037e+02
   1.475516e+02
   1.643894e+02
   1.691223e+02
   8.703494e+01
  -1.021499e+01
  -5.528003e+01
  -7.236133e+01
  -8.425128e+01
  -1.037446e+02
  -6.498038e+01
  -1.213493e+01
   1.526368e+01
   4.649091e+01
   2.361477e+01
   1.451104e+01
  -1.290545e+01
  -8.825942e+01
  -1.019089e+02
  -7.137724e+01
  -6.389367e+01
  -6.262203e+01
   1.022247e+01
   5.775508e+01
   1.811285e+01
  -2.432173e+01
  -4.282798e+01
  -5.646765e+01
  -5.957472e+01
  -4.557698e+01
  -6.292525e+01
  -5.267676e+01
  -3.661335e+01
  -5.125695e+01
  -3.047831e+01
  -1.164170e+00
  -1.136171e+01
  -3.416144e+01
  -3.359155e+00
   3.530119e+01
   7.788439e+00
  -4.220245e+01
  -8.503973e+00
   3.097024e+01
   4.138234e+01
   7.074326e+01
   9.831626e+01
   1.245522e+02
   7.759396e+01
   5.285690e+01
   4.577525e+01
  -6.981297e+00
  -5.297434e+01
  -1.196348e+02
  -1.314868e+02
  -1.315831e+02
  -1.322299e+02
  -7.394034e+01
  -3.505247e+01
  -1.069822e+01
  -2.462886e+01
  -1.639607e+01
   2.103060e+01
  -3.757197e+01
  -7.043405e+01
  -4.315789e+01
   1.306351e+00
   3.492376e+01
   4.102328e+01
   9.748990e+01
   1.065223e+02
   6.697564e+01
   4.880247e+01
   3.470725e+01
   7.754395e+00
  -2.754122e+01
  -4.438250e+01
  -5.315583e+01
  -1.657633e+01
   8.787184e-01
   4.501673e+01
   1.028111e+02
   4.372893e+01
  -2.907467e+01
  -5.628053e+01
  -6.254366e+01
  -8.493265e+01
  -1.196429e+02
  -1.571132e+02
  -1.442607e+02
  -1.175616e+02
  -9.107038e+01
  -4.011626e+00
   3.361809e+01
   7.678278e+01
   1.427901e+02
   9.056817e+01
   2.193754e+01
   1.158423e+01
  -1.793883e+01
  -2.011422e+01
  -1.649306e+01
   3.082182e+01
   7.997533e+01
   1.120921e+02
   1.918037e+02
   1.586859e+02
   9.810293e+01
   3.616380e+01
  -1.673480e+01
  -6.583663e+01
  -1.432046e+02
  -1.370867e+02
  -1.032310e+02
  -5.480096e+01
  -1.009449e+01
   5.341459e+01
   5.061489e+01
  -1.577275e+01
  -6.501369e+01
  -7.547134e+01
  -3.606350e+01
  -5.914807e+01
  -5.209997e+01
  -4.950135e+01
  -3.155891e+01
   2.673012e+00
  -2.814495e+01
  -2.332857e+01
  -1.848060e+01
  -9.214533e-01
   1.877536e+01
   1.644347e+01
   1.359748e+01
   5.649742e-01
  -1.792585e+01
  -1.140066e+01
  -4.511510e+00
  -2.876191e+01
  -3.778260e+01
  -3.496086e+01
  -1.292946e+01
   3.270865e+00
   1.614344e+01
   7.565071e+00
   1.567682e+00
   2.416608e+01
  -1.526478e+01
  -2.625416e+01
  -7.957063e+00
  -8.104016e+00
   9.122770e+00
   3.342191e+01
   6.831634e+01
   7.049491e+01
   8.959265e+01
   9.680706e+01
   7.784721e+01
   5.529216e+01
   1.112618e+00
   2.219373e+01
   3.614029e+01
   2.320942e+01
   9.186846e+01
   9.659789e+01
   2.761507e+01
   1.895632e+00
  -2.203906e+01
  -3.212859e+01
  -3.001492e+01
  -3.417418e+01
  -1.382342e+01
   4.188585e+00
   3.888145e+01
   5.768847e+01
   2.751563e+01
  -1.252141e-01
  -7.290143e+00
  -5.019477e+00
  -3.317416e+01
  -2.689487e+01
   4.563417e+01
   3.308612e+01
   1.296064e+00
   4.127335e+01
   4.013275e+01
   1.275495e+01
  -1.121525e+01
   9.202125e+00
   5.053186e+01
   4.016287e+01
   5.160119e+01
   8.988852e+01
   8.410739e+01
   3.185073e+01
  -1.326157e+01
  -5.151583e+01
  -6.547414e+01
  -4.918712e+01
  -3.112785e+01
  -4.540411e+00
  -2.024824e+00
  -8.442742e+00
  -5.158347e+00
  -2.435871e+01
  -4.196929e+01
  -3.254104e+01
  -1.004575e+01
  -9.085906e+00
  -4.449100e+01
  -5.507307e+01
  -6.832944e+01
  -8.384986e+01
  -6.607714e+01
  -3.196131e+01
   2.697994e+00
   1.091119e+01
   2.522071e+01
   1.465652e+01
   5.171826e+01
   6.703491e+01
  -1.450797e+01
  -3.443526e+01
  -4.110643e+01
  -5.671478e+01
  -8.308031e+01
  -1.057936e+02
  -7.495309e+01
  -4.930248e+01
  -5.144040e+01
  -7.515196e+01
  -7.461804e+01
  -3.425010e+01
  -3.369903e+01
  -4.175572e+01
   8.577575e+00
   4.854776e+01
   5.940904e+01
   7.321133e+01
   1.061359e+02
   1.295915e+02
   1.144336e+02
   8.567097e+01
   5.281380e+01
   4.350752e+01
   3.006134e+01
   2.513323e+00
  -3.001443e+01
  -6.338129e+01
  -8.122846e+01
  -1.114851e+02
  -9.630019e+01
  -5.530672e+01
  -9.769971e+00
   5.943329e+01
   1.136474e+02
   1.098768e+02
   3.976684e+01
   6.783772e+00
   4.468775e+00
  -1.544357e+01
  -4.809110e+01
  -6.394118e+01
  -5.703122e+01
  -6.121496e+01
  -7.932885e+01
  -7.228418e+01
  -9.654805e+01
  -1.252776e+02
  -9.391808e+01
  -1.370323e+02
  -1.121006e+02
  -7.096650e+01
  -8.861554e+01
  -6.085346e+01
  -9.309270e+01
  -1.176644e+02
  -1.435908e+02
  -1.463773e+02
  -1.225467e+02
  -1.289205e+02
  -1.374117e+02
  -1.159301e+02
  -2.579566e+01
   7.773744e+00
   6.315511e+01
   1.752823e+02
   1.889146e+02
   1.651986e+02
   1.500939e+02
   1.129770e+02
   7.110134e+01
   4.016067e+01
   1.533275e+01
   1.135523e+01
   1.511350e+00
  -8.480705e+00
  -2.983201e+00
  -3.243351e-01
   2.756094e+01
   3.635827e+01
   4.215825e+01
   4.903637e+01
   4.008401e+01
   6.281026e+01
   5.117503e+01
   1.866882e+01
   2.045136e+01
   6.446813e+01
   8.382427e+01
   8.058543e+01
   1.005196e+02
   3.971002e+01
   9.934440e+00
  -4.052082e+01
  -6.356253e+01
   1.104991e+02
   1.935059e+02
   1.561495e+02
   1.116630e+02
   1.043090e+02
   5.626449e+01
  -5.114772e+01
  -5.557932e+01
  -3.875666e+01
   9.809530e+00
   4.343306e+01
   2.310827e+01
   2.942112e+01
   2.959942e+01
   2.157384e+01
   1.661908e+01
   4.395009e+01
   3.909012e+01
   2.052582e+01
   4.728641e+01
   4.205832e+01
   2.586829e+01
   1.662740e+01
   1.896611e+00
  -3.404466e+00
  -1.243790e+01
  -3.414258e+01
  -4.904115e+01
  -4.454635e+01
  -5.085356e+01
  -6.279960e+01
  -6.801839e+01
  -7.801803e+01
  -8.266738e+01
  -9.313115e+01
  -1.034786e+02
  -1.071093e+02
  -1.190019e+02
  -1.229574e+02
  -1.246457e+02
  -1.087216e+02
  -7.563936e+01
  -4.455002e+01
  -4.555126e+01
  -8.056840e+01
  -7.399030e+01
  -6.228086e+01
  -8.441048e+01
  -1.191626e+02
  -1.137241e+02
  -7.024203e+01
  -6.361078e+01
  -7.202505e+01
  -5.677650e+01
  -2.196269e+00
   3.713099e+01
   4.296747e+01
   6.477992e+01
   9.883329e+01
   1.170393e+02
   9.741960e+01
   6.418647e+01
   5.146355e+01
   7.174548e+01
   1.054268e+02
   1.142636e+02
   1.066889e+02
   1.304637e+02
   1.587244e+02
   1.516231e+02
   1.367241e+02
   1.389636e+02
   1.396661e+02
   1.297056e+02
   1.504786e+02
   1.757366e+02
   2.046280e+02
   2.534889e+02
   2.784542e+02
   2.684396e+02
   2.440518e+02
   2.388791e+02
   2.195109e+02
   1.931606e+02
   1.833659e+02
   1.518465e+02
   1.288876e+02
   1.427746e+02
   1.671120e+02
   2.031259e+02
   2.381051e+02
   2.165143e+02
   1.605630e+02
   8.738738e+01
   8.782085e+00
  -3.609926e+01
  -6.592308e+01
  -6.719839e+01
  -4.165848e+01
  -1.544529e+01
   1.150292e+01
   2.054100e+01
   9.036558e+00
  -3.045411e+00
  -4.082330e+01
  -9.607290e+01
  -1.071605e+02
  -8.223142e+01
  -5.717866e+01
  -5.631678e+01
  -5.116853e+01
  -2.945209e+01
  -1.721925e+01
  -5.603369e+00
   1.158619e+01
   3.764068e+01
   3.481624e+01
   1.201407e+01
  -7.593600e+00
  -1.294685e+01
   4.751414e+00
  -7.125800e+00
  -1.379746e+01
  -6.318540e+00
  -8.610514e+00
   1.286223e+01
   3.984321e+00
  -3.378794e+01
  -4.688657e+01
  -7.126212e+01
  -9.598497e+01
  -1.066422e+02
  -1.185697e+02
  -1.294356e+02
  -1.422886e+02
  -1.358062e+02
  -1.208626e+02
  -1.196963e+02
  -1.357984e+02
  -1.382101e+02
  -1.380869e+02
  -1.613912e+02
  -1.608274e+02
  -1.726162e+02
  -1.797393e+02
  -1.637317e+02
  -1.557541e+02
  -1.306426e+02
  -1.182530e+02
  -1.155946e+02
  -1.255502e+02
  -1.290383e+02
  -1.231685e+02
  -1.269051e+02
  -1.251686e+02
  -1.260233e+02
  -1.143644e+02
  -1.219143e+02
  -1.271644e+02
  -1.203311e+02
  -1.219973e+02
  -1.271159e+02
  -1.386069e+02
  -1.334227e+02
  -1.068538e+02
  -6.426374e+01
  -5.710126e+01
  -1.715435e+01
   7.966158e+01
   1.272562e+02
   1.218500e+02
   1.251334e+02
   1.992518e+02
   2.383689e+02
   2.322111e+02
   2.640479e+02
   2.936072e+02
   3.086439e+02
   2.757510e+02
   2.214576e+02
   1.570212e+02
   7.475703e+01
   5.130308e+00
  -6.187600e+01
  -8.850165e+01
  -6.380843e+01
  -1.630349e+01
   4.276320e+01
   1.231932e+02
   1.658335e+02
   1.108004e+02
   8.166847e+01
   6.706381e+01
   2.912647e+01
   9.153386e+00
  -5.228293e+01
  -5.506597e+01
  -4.942151e+01
  -8.965694e+01
  -9.570013e+01
  -1.058056e+02
  -7.810474e+01
  -1.055180e+02
  -1.709468e+02
  -1.604799e+02
  -1.635027e+02
  -1.767926e+02
  -1.806998e+02
  -1.972088e+02
  -1.848784e+02
  -1.923032e+02
  -2.181691e+02
  -1.790738e+02
  -1.355726e+02
  -6.581067e+01
   3.335406e+01
   1.030790e+02
   1.527434e+02
   1.598385e+02
   1.631678e+02
   1.767065e+02
   2.093207e+02
   2.511947e+02
   2.567537e+02
   2.507879e+02
   2.398396e+02
   2.072815e+02
   1.659412e+02
   1.582331e+02
   1.794352e+02
   1.958454e+02
   1.588493e+02
   6.939081e+01
   1.084040e+01
  -2.107480e+01
  -3.668242e+01
  -3.378475e+01
  -2.300454e+01
  -1.291378e+01
  -3.238674e+01
  -5.581298e+01
  -6.823196e+01
  -9.313972e+01
  -1.359804e+02
  -1.583201e+02
  -1.752687e+02
  -1.846560e+02
  -1.737127e+02
  -1.842632e+02
  -2.346102e+02
  -2.498913e+02
  -1.702929e+02
  -1.492203e+02
  -1.418707e+02
  -1.087373e+02
  -6.385129e+01
   3.441702e+01
   5.899390e+01
   5.044222e+01
   2.349475e+01
  -1.442401e+00
  -1.602820e+01
  -5.560504e+01
  -7.462685e+01
  -7.227414e+01
  -5.885710e+01
  -6.054951e+01
  -5.859161e+01
  -1.409063e+01
   3.063397e+01
   9.775486e+00
   2.258389e+01
   4.408235e+01
   5.053505e+01
   7.299556e+01
   7.096002e+01
   1.016452e+02
   1.429779e+02
   1.962478e+02
   2.322233e+02
   2.317783e+02
   1.994408e+02
   1.528509e+02
   1.301026e+02
   7.244277e+01
   2.228313e+01
   3.908547e+01
   3.063470e+01
   9.251109e+00
   3.114218e+01
   3.054261e+01
   5.068176e+01
   1.027361e+02
   1.692908e+02
   1.758064e+02
   1.400851e+02
   1.579759e+02
   1.307539e+02
   1.048610e+02
   9.042098e+01
   6.239169e+01
   5.021126e+01
   3.432371e+01
   1.765460e+01
  -4.008687e+00
  -3.255549e+01
  -8.714699e+01
  -1.134780e+02
  -1.289073e+02
  -1.483168e+02
  -1.367967e+02
  -1.263185e+02
  -8.891728e+01
  -3.872482e+01
  -8.700890e+00
   2.340168e+01
   4.252441e+01
   3.491225e+01
   2.550997e+01
   2.706767e+01
   3.757479e+01
   4.597510e+01
   3.596174e+01
   2.299511e+01
   2.431549e+01
   1.315687e+01
   2.704852e+00
   1.786642e+00
   7.102659e+00
   7.816115e+00
  -8.654110e+00
  -9.105255e+00
  -3.367429e+01
  -1.316262e+01
   4.742136e+01
   5.970123e+01
   6.339930e+01
   7.922244e+01
   1.015686e+02
   1.042693e+02
   1.206007e+02
   1.085234e+02
   8.921621e+01
   5.340528e+01
   1.678122e+01
   8.814126e-01
  -3.730550e+01
  -8.367253e+01
  -1.719130e+02
  -7.110954e+01
   2.932364e+01
  -2.437560e-01
   6.541843e+01
   1.225701e+02
   1.970041e+02
   2.223696e+02
   1.979676e+02
   1.709741e+02
   1.301416e+02
   1.109811e+02
   7.201979e+01
   5.644133e+01
   6.491511e+01
   7.544624e+01
   8.940308e+01
   9.487242e+01
   7.142904e+01
   5.758511e+01
   6.676109e+01
   7.150668e+01
   5.706906e+01
   1.386714e+01
  -4.340800e+00
  -2.696933e+01
  -6.038664e+01
  -6.899636e+01
  -7.246665e+01
  -7.611891e+01
  -8.539482e+01
  -9.622500e+01
  -1.069724e+02
  -9.935558e+01
  -8.040406e+01
  -7.030669e+01
  -5.705742e+01
  -4.300678e+01
  -3.416707e+01
  -3.796703e+01
  -4.355417e+01
  -4.621573e+01
  -6.852464e+01
  -9.808664e+01
  -1.054752e+02
  -1.035592e+02
  -1.164775e+02
  -1.252195e+02
  -1.130467e+02
  -1.013321e+02
  -1.066993e+02
  -1.136749e+02
  -1.104091e+02
  -8.284715e+01
  -5.354133e+01
  -5.450559e+01
  -2.123302e+01
   3.202561e+01
   4.321851e+01
   3.268616e+01
   2.648965e+01
   2.627702e+00
  -2.658578e+01
  -2.885865e+01
  -6.598750e+01
  -1.021976e+02
  -9.785323e+01
  -9.068096e+01
  -6.586724e+01
  -2.810576e+01
  -5.708441e+00
  -7.877219e+00
  -2.656766e+01
  -3.363535e+01
  -2.010492e+01
  -2.776042e+01
  -5.719017e+01
  -8.623319e+01
  -9.757059e+01
  -1.038629e+02
  -1.236297e+02
  -1.388300e+02
  -1.437576e+02
  -1.365841e+02
  -1.289656e+02
  -1.250089e+02
  -1.281456e+02
  -1.257361e+02
  -1.202875e+02
  -1.204237e+02
  -1.217066e+02
  -1.345537e+02
  -1.246778e+02
  -9.806460e+01
  -1.001726e+02
  -1.277481e+02
  -1.360272e+02
  -1.179179e+02
  -1.311067e+02
  -1.746904e+02
  -1.819242e+02
  -1.583444e+02
  -1.508353e+02
  -1.466411e+02
  -1.193730e+02
  -7.432315e+01
  -4.853416e+01
  -2.538885e+01
   1.710255e+01
   8.135742e+01
   1.411826e+02
   1.636405e+02
   1.948934e+02
   2.300616e+02
   2.446347e+02
   2.312882e+02
   2.209640e+02
   2.266286e+02
   1.996292e+02
   1.519849e+02
   1.114943e+02
   9.138156e+01
   8.204565e+01
   8.006693e+01
   9.051992e+01
   9.941939e+01
   9.219862e+01
   6.809885e+01
   3.225045e+01
  -1.324981e+01
  -4.617189e+01
  -5.441007e+01
  -4.552579e+01
  -3.763761e+01
  -2.172458e+01
  -5.514708e+00
  -2.711848e+01
